Company name,Country,City,Province,Site address,Company website,BAP Cert,ASC Cert,FOS Cert,FIP Cert,MarinTrust Cert
Proteins Australia Pty Ltd,Australia,,,,,,,,,
Mundo Branco S. A.,Argentina,,,,,,,,,
Huatai Pharma Inc,China,,,,,,,,,
Liaoyu Antarctic Krill Technology Development Co. Ltd.,China,,,,,,,,,
Aller Aqua A/S,Denmark,,,,,,,,,
(Quirola),Ecuador,,,,,,,,,
BARACAMAR S.A.,Ecuador,,,,,,,,,
Africa Feed Suarl,Senegal,,,,,,,,,
Calvo Conservas El Salvador SA de CV,El Salvador,,,,,,,,,
IQI BV,United States of America,,,,,,,,,
Brim,Iceland,,,,,,,,,
Industrial Maule Ltda,Chile,,,,,,,,,
"Binzhou City Public Sen Industry And Trade Co., Ltd.",China,,,,,,,,,
"Qingdao Zhenchangshen Commercial And Trade Co., Ltd.",China,,,,,,,,,
Industrial Maule Ltda,Chile,,,,,,,,,
BEL MEAL,Senegal,,,,,,,,,
GOLD FIN INTERNATIONAL L.L.C,Oman,,,,,,,,,
"Rongcheng Rixin Aquatic Products Co., Ltd.",China,,,,,,,,,
Marine Protein Marprot S.A.,Ecuador,,,,,,,,,
"Shandong Hongji Biology Technology Co., Ltd",China,,,,,,,,,
"Shandong Rongfeng Bio-Technology Development Co., Ltd",China,,,,,,,,,
BioMar A/S,Denmark,,,,,,,,,
Rongcheng Blue Ocean Biotech,China,,,,,,,,,
Rongcheng Jinghai Dingqian Xingyang Fish Meal Factory,China,,,,,,,,,
Rongcheng Xingyang Fishmeal Factory,China,,,,,,,,,
Shandong Qilong Group Co. Ltd.,China,,,,,,,,,
Auqi Marine Bio-Tech Co. Ltd.,China,,,,,,,,,
Ísfélag Vestmannaeyja hf,Iceland,,,,,,,,,
"[OLD NAME: FPP ""Socra"" Co., Ltd.] RPZ Sokra LLC",Russia,,,,,,,,,
Corporacion De Proyectos Multiples Mult.I.Proyectos S.A.,Ecuador,,,,,,,,,
"Trident Seafoods Corporation (Sand Point, AK Shore Plant)",United States of America,,,,,,,,,
Kurzeme Fisheries Producers Organization,Latvia,,,,,,,,,
Corporacion De Proyectos Multiples Mult.I.Proyectos S.A.,Ecuador,,,,,,,,,
CRISTOBAL TOMAS GONZALEZ POZO/PINDHAGON,Ecuador,,,,,,,,,
Pesquera Centromar S.A.,Ecuador,,,,,,,,,
Fiordo Austral S.A.,Chile,,,,,,,,,
Syarikat Kilang Serbok Ikan (Asia) Sdn. Bhd.,Malaysia,,,,,,,,,
Icicle Seafoods Corporation Northern Victor (shore plant),United States of America,,,,,,,,,
Icicle Seafoods Corporation Northern Victor (shore plant),United States of America,,,,,,,,,
DELTAGEN ECUADOR S.A.,Ecuador,,,,,,,,,
Aquatic Food Manufacturing Corporation,Philippines,,,,,,,,,
DESPROCAR,Ecuador,,,,,,,,,
Tangawira Sdn. Bhd.,Malaysia,,,,,,,,,
DIBAR S.A.,Ecuador,,,,,,,,,
HARINAS Y CONSERVAS DE PESCADO HARCONPEZ S.A,Ecuador,,,,,,,,,
INASA Industrial Aceitera SA,Ecuador,,,,,,,,,
LUIS ANTONIO POZO ASCENCIO,Ecuador,,,,,,,,,
MULTIPRO_YECTO S.A.,Ecuador,,,,,,,,,
NAGRO S.A.,Ecuador,,,,,,,,,
NU MEGA INGREDIENTS ECUADOR NMI S.A.,Ecuador,,,,,,,,,
NUTRIFISHING S.A,Ecuador,,,,,,,,,
P D-PESCA,Ecuador,,,,,,,,,
Southwest Asian Canning Corporation (SACC),Philippines,,,,,,,,,
PEANDRES S.A,Ecuador,,,,,,,,,
PESQUERA CENTRO MAR,Ecuador,,,,,,,,,
PINDHAGON S.A.,Ecuador,,,,,,,,,
Gold Star Seafoods,Philippines,,,,,,,,,
AR Global Fishmeal,Indonesia,,,,,,,,,
PRODUCTORA MARVIVO S.A PROMARVI,Ecuador,,,,,,,,,
Biji Sesawi,Indonesia,,,,,,,,,
PROVEEDORES DE LA COSTA PROVECOSTA CIA. LTDA.,Ecuador,,,,,,,,,
"Bombana Raya, CV",Indonesia,,,,,,,,,
CV SUMBER REJEKI MAKMUR SEJAHTERA,Indonesia,,,,,,,,,
Comapeche Farine S.A.,Mauritania,,,,,,,,,
Janatha Inter Fish Protein,Mauritania,,,,,,,,,
REMO ROHN S.A.,Ecuador,,,,,,,,,
ROSMEY S.A.,Ecuador,,,,,,,,,
SEGUNDO FELIPE ASCENCIO RIVERA,Ecuador,,,,,,,,,
"INDAH KEMILAU ALAM NUSANTARA, CV",Indonesia,,,,,,,,,
Industri Tepung,Indonesia,,,,,,,,,
Mauritania Business SARL,Mauritania,,,,,,,,,
SIQUALITY S.A.,Ecuador,,,,,,,,,
JXYG,Gambia,,,,,,,,,
STOLLER ECUADOR S.A.,Ecuador,,,,,,,,,
Mauritania Sea Food SARL,Mauritania,,,,,,,,,
PT Lautan Kembar Sejati,Indonesia,,,,,,,,,
UNIVERSAL DE COMERCIO S.A. UNICORSA,Ecuador,,,,,,,,,
Mulia abadi tepung ikan (Noble perennial fishmeal),Indonesia,,,,,,,,,
PT Munchar,Indonesia,,,,,,,,,
MOUHIT AL BARAKA SA,Mauritania,,,,,,,,,
Pabrik Tepung Ikan PPP Tegalsari (PPP Tegalsari Fish Meal Factory),Indonesia,,,,,,,,,
PT Adhinusa Dian Manggalindo,Indonesia,,,,,,,,,
PT. Bali Omega,Indonesia,,,,,,,,,
PT. CNL Maju Bersatu,Indonesia,,,,,,,,,
Ud Samudra Kencana,Indonesia,,,,,,,,,
Omaurci SA,Mauritania,,,,,,,,,
PT Sarifeed Indojaya,Indonesia,,,,,,,,,
Proteine Seafood,Mauritania,,,,,,,,,
Rim Fish Meal,Mauritania,,,,,,,,,
SFHP SARL,Mauritania,,,,,,,,,
Tepung Ikan Bangkit Jaya (Bangkit Jaya Fish Meal),Indonesia,,,,,,,,,
TEPUNG IKAN BYPASS KRIAN,Indonesia,,,,,,,,,
Tepung Ikan Manual Muncar (Muncar manual fish meal),Indonesia,,,,,,,,,
TEPUNG IKAN MURNI BEKASI (BEKASI PURE FISH FLOUR),Indonesia,,,,,,,,,
Tepung ikan/minyak ikan SBR (SBR fish meal/fish oil),Indonesia,,,,,,,,,
PT. Sais Jaya Abadi,Indonesia,,,,,,,,,
Agouzzal & CIE S.A.,Morocco,,,,,,,,,
Pesquera Herco SA,Ecuador,,,,,,,,,
CV Bumi Indo,Indonesia,,,,,,,,,
Pabrik Tepung Ikan,Indonesia,,,,,,,,,
PT Bumi Indo Jaya,Indonesia,,,,,,,,,
PT Indocitra Jaya Sumadera,Indonesia,,,,,,,,,
IQI BV,Netherlands,,,,,,,,,
Almeve SARL,Morocco,,,,,,,,,
Complexe Industriel des Produits de la Mer (CIPMER) S.A,Morocco,,,,,,,,,
Dinay Bluewave,Morocco,,,,,,,,,
Malufra 2,Morocco,,,,,,,,,
Olvea Atlantic 2,Morocco,,,,,,,,,
Beltran Peru E.I.R.L.,Peru,,,,,,,,,
S.P.P. (Sous Produits du Poisson),Morocco,,,,,,,,,
Pesquera Miguel Angel S.A.C.,Peru,,,,,,,,,
Tan Tan Sardine,Morocco,,,,,,,,,
Tantasar,Morocco,,,,,,,,,
Tadel SA,Ecuador,,,,,,,,,
Pesquera 2020 S.A.C.,Peru,,,,,,,,,
ECUAFEED S.A.,Ecuador,,,,,,,,,
HARINA DE CAMARON HARCAM S.A.S.,Ecuador,,,,,,,,,
HARINA DE PESCADO DE EXPORTACION HARDEPEX CIA. LTDA.,Ecuador,,,,,,,,,
INDUSTRIA HARINERA DEL PACIFICO S.A. INHARIPAC S.A.,Ecuador,,,,,,,,,
Atlantic Fish S.R.L.,Peru,,,,,,,,,
C & H Fish S.A.C.,Peru,,,,,,,,,
Cantarana S.A.C,Peru,,,,,,,,,
The Waterbase,India,,,,,,,,,
Compania Pesquera del Pacifico Centro S.A.,Peru,,,,,,,,,
Compania Pesquera del Pacifico Centro S.A.,Peru,,,,,,,,,
Al Faizal Dry Fish,India,,,,,,,,,
Compania Pesquera del Pacifico Centro S.A.,Peru,,,,,,,,,
Conservera San Lucas S.A.C.,Peru,,,,,,,,,
Corporacion Pesquera Coishco S.A.,Peru,,,,,,,,,
Ambitious Fishmeal Product,India,,,,,,,,,
Anfal Marine Products,India,,,,,,,,,
Arbee Biomarine Extracts Private Limited,India,,,,,,,,,
Bawa Fishmill & Oil Co.,India,,,,,,,,,
Dexim Srl,Peru,,,,,,,,,
Industria Atunera S.A.C.,Peru,,,,,,,,,
Econort Group S.A.C.,Peru,,,,,,,,,
Blueline foods India Pvt. Ltd Unit - I,India,,,,,,,,,
Inversiones Oslo S.A.C.,Peru,,,,,,,,,
Pacific Freezing Company S.A.C.,Peru,,,,,,,,,
Global Marine Exports,India,,,,,,,,,
CPD FARINE,Western Sahara,,,,,,,,,
Hind Aquatic,India,,,,,,,,,
"New Hope Liuhe Co., Ltd.",China,,,,,,,,,
HKA Bawa & Sons,India,,,,,,,,,
Indo Fish Meal & Oil Company Private Limited,India,,,,,,,,,
J.M. Sea Foods,India,,,,,,,,,
Jaimar Enterprises,India,,,,,,,,,
Janatha Fish Meal and Oil Products,India,,,,,,,,,
Can Kardeşler Su Ürünleri San. Tic. A.Ş. Yem İşletmesi,Turkey,,,,,,,,,
Jenefa India,India,,,,,,,,,
Marina De Guerra Del Peru,Peru,,,,,,,,,
LAAYOUNE PROTEINES S.A.R.L,Western Sahara,,,,,,,,,
Can.Kardeşler Su Ürün.San.Ve Tic.A.Ş. Bal.Un.Fab.,Turkey,,,,,,,,,
"Dalyan Su Urunleri ve Gida San. Nak. Tic. Ltd. Sti. (KOBYALAR
GROUP)",Turkey,,,,,,,,,
Dardanel Önentaş Gıda Sanayi Anonim Şirketi Balık Unu Fabrikası,Turkey,,,,,,,,,
Ege İz Yem,Turkey,,,,,,,,,
Sepomer (alt name: Sepomer Sahara II),Western Sahara,,,,,,,,,
Min Zar Ni Co. Ltd.,Myanmar,,,,,,,,,
King Fish Products,India,,,,,,,,,
Min Zar Ni Co. Ltd.,Myanmar,,,,,,,,,
M/s Blueline Foods (India) Pvt. Ltd. Unit-II,India,,,,,,,,,
Min Zar Ni Co. Ltd.,Myanmar,,,,,,,,,
Mowi Markets Norway AS,Norway,,,,,,,,,
Mangalore Marine Products,India,,,,,,,,,
Musselfeed SE,Sweden,,,,,,,,,
[OLD NAME: SOMATRAPS] Sté Marocaine de Traitement de Poisson Sud (Somatraps)  S.A.R.L.,Western Sahara,,,,,,,,,
MM Ashraf LLP - Manufacturer of Fish Meal and Fish Oil,India,,,,,,,,,
Pesquera Exalmar S.A.,Peru,,,,,,,,,
Mukka Proteins Limited,India,,,,,,,,,
[OLD NAME: SOTRAGEL] Ste de Traitement et de Congelation de Poissons (SOTRAGEL),Western Sahara,,,,,,,,,
Pesquera Exalmar S.A.,Peru,,,,,,,,,
Laayoune Elevage,Western Sahara,,,,,,,,,
Atlantic Tank Terminal,Western Sahara,,,,,,,,,
Afropesca,Western Sahara,,,,,,,,,
Protein and Oil Industry Sarl,Western Sahara,,,,,,,,,
BLT Berg LipidTech AS,Norway,,,,,,,,,
GC Rieber VivoMega AS,Norway,,,,,,,,,
Epax Norway AS,Norway,,,,,,,,,
Nutrishell AS,Norway,,,,,,,,,
Pelagia Protein AS,Norway,,,,,,,,,
Cervonic Ltd.,Mauritius,,,,,,,,,
SeaGarden AS,Norway,,,,,,,,,
PELAGIA HORDAFOR SALTHELLA,Norway,,,,,,,,,
Mukka Proteins Limited,India,,,,,,,,,
NatNov Bioscience Pvt. Ltd.,India,,,,,,,,,
NPM Aquatic Fish Links Private Limited,India,,,,,,,,,
NPM Fish Meal and Oil Products,India,,,,,,,,,
ECB Company SRL,Italy,,,,,,,,,
Bioceval GmbH & Co KG,Denmark,,,,,,,,,
Generale Conserve S.p.A.,Italy,,,,,,,,,
Om Sai Aqua,India,,,,,,,,,
Kauluan Sdn Bhd,Malaysia,,,,,,,,,
QL Marine Products Sdn.Bhd.,Malaysia,,,,,,,,,
Omega Fishing,Senegal,,,,,,,,,
Concentrados De Proteinas S.A.C,Peru,,,,,,,,,
Pesquera Exalmar S.A.,Peru,,,,,,,,,
Pesquera Hayduk S.A.,Peru,,,,,,,,,
King Pelagique,Morocco,,,,,,,,,
Pesquera Hayduk S.A.,Peru,,,,,,,,,
Gümüşdoğa Su Ürünleri Üretim İhracat Ve İthalat A.Ş.Yem Fabrikası,Turkey,,,,,,,,,
Gürdal Yem Enerji Tarım Gıda Hayvancılık Sanayi ve Ticaret A.Ş. Yem Fabrikası,Turkey,,,,,,,,,
İpek Yem ve Gıda San. Tic. A.Ş.-Yem Fabrikası,Turkey,,,,,,,,,
Omega Fishmeal And Oil Private Limited,India,,,,,,,,,
Pacific Marine Products,India,,,,,,,,,
Progress Frozen and Fish Sterilization,India,,,,,,,,,
Quality foods,India,,,,,,,,,
Blueline Foods (India) Pvt. Ltd. Unit-IV,India,,,,,,,,,
PESQUERA HAYDUK S.A.,Peru,,,,,,,,,
Pesquera Hayduk S.A.,Peru,,,,,,,,,
Pesquera Hayduk S.A.,Peru,,,,,,,,,
CORPORACION PESQUERA 1313 S.A.,Peru,,,,,,,,,
Independent Fisheries Limited,New Zealand,,,,,,,,,
Setalg,France,,,,,,,,,
Los Glaciares S.A.,Chile,,,,,,,,,
Pescasud SARLAU,Morocco,,,,,,,,,
Shri Rozy Fish Meal and oil,India,,,,,,,,,
Sogenco,Morocco,,,,,,,,,
Peruvian Sea Food S.A.,Peru,,,,,,,,,
ASK Andaman Ltd,Myanmar,,,,,,,,,
"Marine Acary Production Co.,Ltd",Myanmar,,,,,,,,,
Kiyak Kardesler-Black Sea Co.,Turkey,,,,,,,,,
LTD MBM,Georgia,,,,,,,,,
Rybolovetskaya artel (kolkhoz) im. 50 let Oktyabrya,Russia,,,,,,,,,
Production Association Sakhalinrybaksoyuz LLC,Russia,,,,,,,,,
JSC Turnif,Russia,,,,,,,,,
Hawkes Bay Protein Limited,New Zealand,,,,,,,,,
Pesquera Miguel Angel S.A.C.,Peru,,,,,,,,,
Pesquera Natalia S.A.C.,Peru,,,,,,,,,
Pesquera Diamante S.A.,Peru,,,,,,,,,
M/S Balochistan Marines Products，Pakistan,Pakistan,,,,,,,,,
"Marksmen Aquatic Products, LLP",India,,,,,,,,,
Tirupati Fish Meal,India,,,,,,,,,
Pak China Fish Meal,Pakistan,,,,,,,,,
Global Fish Trading Sarl,Western Sahara,,,,,,,,,
Laayoune Proteine S.A.R.L,Western Sahara,,,,,,,,,
Bransomar S.A.C.,Peru,,,,,,,,,
Pesquera Nemesis S.A.C.,Peru,,,,,,,,,
Pesca Peru Tambo De Mora Norte S.A.,Peru,,,,,,,,,
Marine Industrial Corporation S.A.C. - Marincorp,Peru,,,,,,,,,
K.B. Fish,Western Sahara,,,,,,,,,
Aung Myat Phyo Int'l Fish Meal Plant,Myanmar,,,,,,,,,
Laayoune Proteine S.A.R.L,Western Sahara,,,,,,,,,
Tecnologias en Favor del Medio Ambiente S.A.C.,Peru,,,,,,,,,
Triada Foods S.A.C.,Peru,,,,,,,,,
Pesquera Hillary E.I.R.L.,Peru,,,,,,,,,
Productora Amg S.A.C.,Peru,,,,,,,,,
Pesquera Canhann S.A.C.,Peru,,,,,,,,,
Cnc S.A.C.,Peru,,,,,,,,,
Corporacion Industrial Milagros Del Mar S.A.,Peru,,,,,,,,,
Corporacion Pesquera Inca S.A.C.,Peru,,,,,,,,,
Don Raul S.A.C.,Peru,,,,,,,,,
Empresa Pesquera Gamma S.A.,Peru,,,,,,,,,
Fishpro Nor Peru S.A.C.,Peru,,,,,,,,,
Group Corporation Reye's S.A.C.,Peru,,,,,,,,,
Industrial Don Martin S.A.C.,Peru,,,,,,,,,
Inversiones Regal S.A,Peru,,,,,,,,,
Htoo Htoo Toe International Company Limited,Myanmar,,,,,,,,,
"JSC ""ASK"" aka Agency Selkhozkorma",Russia,,,,,,,,,
Natural Protein Technologies S.A.C.,Peru,,,,,,,,,
Pesquera Altair S.A.C.,Peru,,,,,,,,,
Pesquera Maress S.A.C,Peru,,,,,,,,,
Pesquera Op7 & Bell S.A.C. / Op7 & Bell S.A.C.,Peru,,,,,,,,,
Pesquera Rubi S.A.,Peru,,,,,,,,,
Pesquera Z Y T S.A.C.,Peru,,,,,,,,,
Procesadora De Productos Marinos SA,Peru,,,,,,,,,
San Fernando S.A.,Peru,,,,,,,,,
San Fernando S.A.,Peru,,,,,,,,,
Solmar Empresa Pesquera S.A.,Peru,,,,,,,,,
Soraya S.A.C.,Peru,,,,,,,,,
Tecnológica de Alimentos S.A. (TASA),Peru,,,,,,,,,
Tecnológica de Alimentos S.A. (TASA),Peru,,,,,,,,,
Tecnológica de Alimentos S.A. (TASA),Peru,,,,,,,,,
Transmarina Del Peru Sociedad Anonima Cerrada - Transmarina Del Peru S.A.C.,Peru,,,,,,,,,
"LLC ""Kamchattralflot""",Russia,,,,,,,,,
NordFeed LLC,Russia,,,,,,,,,
"[OLD NAME: Tymlatsky Rybokombinat Co., Ltd. Fish Factory] Tymlatsky Fish Factory",Russia,,,,,,,,,
Vityaz-Avto Co Ltd. Fish-Processing Work-Shop,Russia,,,,,,,,,
Triarc S.A.,Peru,,,,,,,,,
JSC Murmansk Region Fleet,Russia,,,,,,,,,
PJSC Murmansk Trawling Fleet,Russia,,,,,,,,,
JSC Akros,Russia,,,,,,,,,
JSC Akros,Russia,,,,,,,,,
LLC Roliz,Russia,,,,,,,,,
LLC Roliz,Russia,,,,,,,,,
JSC Akros-3,Russia,,,,,,,,,
LLC Vostokrybprom,Russia,,,,,,,,,
OOO RK Luntos,Russia,,,,,,,,,
Mercury Co Ltd,Russia,,,,,,,,,
Interrybflot,Russia,,,,,,,,,
JSC North-Kurilsk Base of Seiner Fleet (NBSF),Russia,,,,,,,,,
JSC Ostrov Sakhalin,Russia,,,,,,,,,
Bluff Proteins Limited,New Zealand,,,,,,,,,
"Alyeska Seafoods, Inc.",United States of America,,,,,,,,,
"Hai An Co., Ltd",Vietnam,,,,,,,,,
Food Joint Stock Company,Vietnam,,,,,,,,,
Promarina SA,Panama,,,,,,,,,
Unknown,Peru,,,,,,,,,
Pacific Deep Frozen S.A.,Peru,,,,,,,,,
Nam Hoa Y Factory - Van Don Company Limited,Vietnam,,,,,,,,,
Mien Thang Sa Dec Company Ltd.,Vietnam,,,,,,,,,
Minh Thang Sa Dec Company Limited,Vietnam,,,,,,,,,
Berg LipidTech AS,Norway,,,,,,,,,
Seafrost S.A.C.,Peru,,,,,,,,,
Hordafor AS,Norway,,,,,,,,,
Karmsund Protein AS,Norway,,,,,,,,,
MBP Bio Production AS,Norway,,,,,,,,,
Compania Pesquera del Pacifico Centro S.A.,Peru,,,,,,,,,
Alimentos Pesqueros SpA,Chile,,,,,,,,,
Industria Procesadora de Aceites y Grasas S.A.,Chile,,,,,,,,,
Touba Protein Marine,Senegal,,,,,,,,,
Foodcorp Chile S.A.,Chile,,,,,,,,,
Trihung Producing Trading Im-Export Company Limited,Vietnam,,,,,,,,,
Edayre,Mauritania,,,,,,,,,
Hong Dong Farine et Huile,Mauritania,,,,,,,,,
Sao Mai An Giang; Travel Investment and Seafood Development Corp. (Trisedco),Vietnam,,,,,,,,,
Epesca Pisco S.A.C.,Peru,,,,,,,,,
Sao Mai An Giang; Travel Investment and Seafood Development Corp. (Trisedco),Vietnam,,,,,,,,,
Sao Mai An Giang; Travel Investment and Seafood Development Corp. (Trisedco),Vietnam,,,,,,,,,
Moumina Fishing,Mauritania,,,,,,,,,
Sahara Peche,Mauritania,,,,,,,,,
"ThienPhat Manufacturing and Trading Co., Ltd",Vietnam,,,,,,,,,
"RONG CHANG SARLU, Republic of Congo(Brazzaville)",Republic of Congo,,,,,,,,,
Winterisation Mauritania SARL,Mauritania,,,,,,,,,
Comapeche,Mauritania,,,,,,,,,
"Suchato Fishmeal
Factory Part., Ltd.",Thailand,,,,,,,,,
Pattani Fishmeal (1988) Company Limited,Thailand,,,,,,,,,
Mauritania Sea Food Solube,Mauritania,,,,,,,,,
"Phatanakarn Pramong Pattany Co., Ltd.",Thailand,,,,,,,,,
"Kasemkit Pattani Fishmeal Co., Ltd.",Thailand,,,,,,,,,
Thien Quynh Khanh Hoa Sole Member Limited Liability Company,Vietnam,,,,,,,,,
Ocean Proteine,Mauritania,,,,,,,,,
"Southern Fishmeal Factory (1969) Co., Ltd.",Thailand,,,,,,,,,
"Yangon Fishery Development Co.,Ltd",Myanmar,,,,,,,,,
Jana Fish Industries Limited,Thailand,,,,,,,,,
"Vantage Co.,Ltd",Myanmar,,,,,,,,,
"Samila Fish Meal Co., Ltd.",Thailand,,,,,,,,,
"Srinakorn Fishmeal Factory Part., Ltd.",Thailand,,,,,,,,,
Aquarius AS,Norway,,,,,,,,,
"Songkhla Marine Products Co., Ltd.",Thailand,,,,,,,,,
BASF AS,United Kingdom,,,,,,,,,
Nordlaks Produkter AS avd Stokmarknes.,Norway,,,,,,,,,
"Patthana Charoen Powder Fish Factory Part., Ltd.",Thailand,,,,,,,,,
"Saengcharoen Wattana Fishery Co., Ltd.",Thailand,,,,,,,,,
BVP Marine Product Co. Ltd.,Thailand,,,,,,,,,
"Kanthaksin Fish Powder Industrial Co., Ltd.",Thailand,,,,,,,,,
"Paechae Songkhla Co., Ltd.",Thailand,,,,,,,,,
J D P COMPANY LIMITED,Thailand,,,,,,,,,
PACIFIC FISHMEAL INDUSTRIAL COMPANY LIMITED,Thailand,,,,,,,,,
"J. D. P. Co., Ltd.",Thailand,,,,,,,,,
"Phuket Fishmeal Industrial Co.,ltd",Thailand,,,,,,,,,
"Sinphiboonchai Fishmill Part., Ltd.",Thailand,,,,,,,,,
Choke Udom Pattana Fishmeal Limited Partnership,Thailand,,,,,,,,,
"Mit Khanom Fish Meal (1997) Co., Ltd.",Thailand,,,,,,,,,
"Witchu Industry Co., Ltd.",Thailand,,,,,,,,,
"Sichon Fishmeal Factory Part., Ltd.",Thailand,,,,,,,,,
"Chaweng Watana Fishmeal Factory Part., Ltd.",Thailand,,,,,,,,,
"Chok Anavin Fishery Co., Ltd.",Thailand,,,,,,,,,
"Panichprapon Co., Ltd.",Thailand,,,,,,,,,
Kantang KSC Part. Ltd.,Thailand,,,,,,,,,
Charoen Kijjakarn Ranong Fish Meal Factory Part. Ltd.,Thailand,,,,,,,,,
"Siamchai Pokpan Co., Ltd",Thailand,,,,,,,,,
"Mahatasinwaree Co., Ltd.",Thailand,,,,,,,,,
"Saha Pramong Fish Meal Ranong Co., Ltd.",Thailand,,,,,,,,,
"Teppama Fishmeal Co., Ltd",Thailand,,,,,,,,,
"Suk Ruang Kaew Fish Meal (2004) Co., Ltd.",Thailand,,,,,,,,,
Ranong Food Products Part. Ltd.,Thailand,,,,,,,,,
"Krungdhep Mahakij Co., Ltd.",Thailand,,,,,,,,,
Teppama Fishmeal Company Limited,Thailand,,,,,,,,,
"Tungka Fishmeal
Part.,Ltd.",Thailand,,,,,,,,,
"Siam Fishmeal Factory Co., Ltd. (Part. Ltd.)",Thailand,,,,,,,,,
"Klong Yai Fishmeal Co., Ltd.",Thailand,,,,,,,,,
"Wasan Samut Fish Meal Part., Ltd.",Thailand,,,,,,,,,
"Saengcharoen Products part., Ltd.",Thailand,,,,,,,,,
"San-nguansin Fish Meal Part., Ltd.",Thailand,,,,,,,,,
"Ban Klaeng Industry Part., Ltd.",Thailand,,,,,,,,,
"Eastern Fishmeal Co.,Ltd.",Thailand,,,,,,,,,
"ThuyHai Seafood Processing Co., Lt",Vietnam,,,,,,,,,
Tak Chua Brothers Sdn Bhd,Malaysia,,,,,,,,,
Mar Fusion S.A.,Chile,,,,,,,,,
Trio SpA,Chile,,,,,,,,,
Química Industrial SPES S.A.,Chile,,,,,,,,,
"Panus Feed Mill Co., Ltd.",Thailand,,,,,,,,,
"Fishmeal Marketing Development Co., Ltd.",Thailand,,,,,,,,,
"Taweelarp Fish Meal Part., Ltd.",Thailand,,,,,,,,,
SIAM PROTEINS COMPANY LIMITED,Thailand,,,,,,,,,
"Klongdan Fish Meal (2530) Co., Ltd.",Thailand,,,,,,,,,
"SIAM PRECIOUS FEEDS CO., LTD.",Thailand,,,,,,,,,
"Aquabest Group Co., Ltd.",Thailand,,,,,,,,,
"Rungsin Pokphand Co., Ltd.",Thailand,,,,,,,,,
"T.C. Union Agrotech Co., Ltd",Thailand,,,,,,,,,
Sanki Shiryo Kogyo Ltd.,Japan,,,,,,,,,
"Starfish Co.,Ltd.",Thailand,,,,,,,,,
Siirisaengarumpee Company Limited,Thailand,,,,,,,,,
"Piyo Bhokabhan Co.,Ltd",Thailand,,,,,,,,,
"Thachin Fishmill Industrial Co., Ltd.",Thailand,,,,,,,,,
Anusorn Mahachai Surimi,Thailand,,,,,,,,,
"Patthriya Thanit Co., Ltd.",Thailand,,,,,,,,,
Apitoon Fish Meal Company Limited,Thailand,,,,,,,,,
"SR Biomarine Co., Ltd.",Thailand,,,,,,,,,
"Sucobma Co., Ltd.",Thailand,,,,,,,,,
Nivat Fishmeal Industry Company Limited,Thailand,,,,,,,,,
"Sermsin Fish Product Co., Ltd",Thailand,,,,,,,,,
"Chareon Sin Fish Meal Co., Ltd.",Thailand,,,,,,,,,
"Betagro Feed Mill Co., Ltd.",Thailand,,,,,,,,,
"TSDP (Thailand) Co., Ltd.",Thailand,,,,,,,,,
"S.K.S. Agro-Marine Co., Ltd.",Thailand,,,,,,,,,
Sahamitr Fish Meal Company Limited,Thailand,,,,,,,,,
"Wiboon Agri Supply Co., Ltd.",Thailand,,,,,,,,,
"Sorasak Fishmeal Co., Ltd.",Thailand,,,,,,,,,
"Sang Thong Saha Farm (STF) Co., Ltd.",Thailand,,,,,,,,,
"Rakyom 2525 Co., Ltd.",Thailand,,,,,,,,,
INVE (THAILAND) LTD.,Thailand,,,,,,,,,
"T R F Fishmeal Co., Ltd.",Thailand,,,,,,,,,
"Pacific Marine Food Products Co.,Ltd",Thailand,,,,,,,,,
"Advance Agro and Technology Part., Ltd.",Thailand,,,,,,,,,
"Anusorn Aquatic Industry Co., Ltd.",Thailand,,,,,,,,,
"Aquatic Deal Co., Ltd.",Thailand,,,,,,,,,
"Bangsaphan Union Fishmeal Co., Ltd. / Company Limited Fishmeal Bridges",Thailand,,,,,,,,,
United Fishing Enterprises Pty Limited,Namibia,,,,,,,,,
"Minh Tâm Fishmeal Co.,Ltd",Vietnam,,,,,,,,,
Minh Tam Fish Meal Processing Company Limited,Vietnam,,,,,,,,,
"Tac Cau Fish Meal Processing Area
",Vietnam,,,,,,,,,
Tan Tien Fish Meal Processing Factory,Vietnam,,,,,,,,,
"Thien Phat Manufacturing and Trading Co., Ltd",Vietnam,,,,,,,,,
Yong Liang Fishmeal Sdn Bhd,Malaysia,,,,,,,,,
Hup Lean Alk Feedmeal Sdn. Bhd.,Malaysia,,,,,,,,,
Amazing Desire Sdn Bhd.,Malaysia,,,,,,,,,
Sin Hong Heng Fishmeal Sdn. Bhd.,Malaysia,,,,,,,,,
Guan Hoe Huat Fishmeal Co. Sdn. Bhd.,Malaysia,,,,,,,,,
Yew Seng Fishmeal Sdn. Bhd.,Malaysia,,,,,,,,,
Lucky Ocean Enterprise Sdn. Bhd.,Malaysia,,,,,,,,,
"Densamut Fishmeal Factory Part., Ltd.",Thailand,,,,,,,,,
"K-Pro (Thailand) Co., Ltd.",Thailand,,,,,,,,,
"Khantichai Fishmeal Co.,Ltd.",Thailand,,,,,,,,,
"Khuraburi Fishmeal Industry Co., Ltd.",Thailand,,,,,,,,,
"N.K. Fishmeal Co., Ltd.",Thailand,,,,,,,,,
"Nang Yon Fishmeal Industry Co., Ltd.",Thailand,,,,,,,,,
"Our Leader Office Co., Ltd.",Thailand,,,,,,,,,
"P.S.P. Fishmeal Co., Ltd.",Thailand,,,,,,,,,
Binsedoon For Fish and Marine Co.,Yemen,,,,,,,,,
Al-Muhajer For Trading and Seafood Industry,Yemen,,,,,,,,,
Albahsani Bin Sadoon,Yemen,,,,,,,,,
The Arab Company for Canning and Packaging,Yemen,,,,,,,,,
"Oceans Fish Factory, Ltd.",Yemen,,,,,,,,,
Botin Globe Company,Yemen,,,,,,,,,
King Future Factory,Yemen,,,,,,,,,
Bin Saldoun Grinding Factory,Yemen,,,,,,,,,
Gulf Protein Factory,Yemen,,,,,,,,,
Arabian Peninsula Company for Marine Products,Yemen,,,,,,,,,
Al-Nawras Company,Yemen,,,,,,,,,
Tuna Factory for Fish Canning and Packaging,Yemen,,,,,,,,,
Saba’a Factory for Fish Products,Yemen,,,,,,,,,
Al-Ghoweizi Fish Canning Factory,Yemen,,,,,,,,,
Chilan Pishbin Fish Meal Production Factory,Iran,,,,,,,,,
Fish Lantern / Lanternfish of Qeshm / Fanous Mahiyan Qeshm / فانوس ماهیان,Iran,,,,,,,,,
Golden Clean Industry Qeshm Fish Meal Factory / Zarin Sanat Pak Qeshm Fish Powder Factory / کارخانه پودر ماهی زرین صنعت پاک قشم,Iran,,,,,,,,,
Khazar Kilka Processing Company / شرکت کیلکا فرآور خزر,Iran,,,,,,,,,
"Honoroad Vietnam Aquatic Feed Ingredient Processing Co., Ltd.",Vietnam,,,,,,,,,
پودر زرین / Golden Powder / Zarrin Powder,Iran,,,,,,,,,
Sayyad Qeshm Fish Meal,Iran,,,,,,,,,
Roshd Dorna,Iran,,,,,,,,,
Baran Rize Silk Road Company / Sherkat Baran Rize Rah Abrisham,Iran,,,,,,,,,
"International Fish Meal Company Mato Fish, Shahre Aftab, and Mahakood Fish Fertilizer / Mato Fish International Fish Meal Company, Shahre Aftab, and Mahakood Fish Fertilizer / Aftab Shahr Mahkod Fish Fertilizer International Co., Ltd / Mato Qeshm Fish Meal",Iran,,,,,,,,,
Golden Seed Chabahar Fish Meal Company,Iran,,,,,,,,,
"Saba Majd Qeshm Fish Meal Cooperative Company / Qeshm Cooperative Fish Meal Company, Saba Majd",Iran,,,,,,,,,
Aras Marine Products Co,Iran,,,,,,,,,
Kilka Powder Sahar Company / Sherkat Kilka Poodar Sahar,Iran,,,,,,,,,
Gulshan Asur Company,Iran,,,,,,,,,
Motavakesham Company,Iran,,,,,,,,,
Qeshm Fish Processing /Faravari Mahi Qeshm / Sherkat Faravari Mahi Qeshm,Iran,,,,,,,,,
Ghaem Seaside Powder / Qam Sahal Powder,Iran,,,,,,,,,
Tiyab Fish Meal Factory,Iran,,,,,,,,,
Yazdan Darya Bostaneh Fish Meal Factory / Karkhaneh Poodar Mahi Yazdan Darya Bostaneh,Iran,,,,,,,,,
"Pattani Industry Fishery Co., Ltd.",Thailand,,,,,,,,,
"Pornjeerasak Co., Ltd.",Thailand,,,,,,,,,
"Rung Ruang Fish Works Co.,Ltd.",Thailand,,,,,,,,,
"Sahacharoenkit Industry (1978) Part., Ltd.",Thailand,,,,,,,,,
"Sakol Fishmeal Co., Ltd.",Thailand,,,,,,,,,
"Samutprakarn Fish Meal Co., Ltd.",Thailand,,,,,,,,,
"Siam Eastern Industry Co., Ltd.",Thailand,,,,,,,,,
"Thai Pattana Feed Co., Ltd.",Thailand,,,,,,,,,
"Thungca Fish Meal Part., Ltd.",Thailand,,,,,,,,,
"United Marine Products Co., Ltd.",Thailand,,,,,,,,,
"Woraphan Ice and Fishmeal Part., Ltd",Thailand,,,,,,,,,
"Weng Cheaglee Fish Powder Industry Part., Ltd.",Thailand,,,,,,,,,
Majestic Seafood Corporation,Papua New Guinea,,,,,,,,,
"Hong DucVuong Viet Nam Co., Ltd",Vietnam,,,,,,,,,
Ngoc Dung Trading and Production Co. Ltd.,Vietnam,,,,,,,,,
Shri Rozy Fish Meal and oil,India,,,,,,,,,
Tirupati Fish Meal,India,,,,,,,,,
Janatha Ocean Products,India,,,,,,,,,
Mukka Sea Food Industries Pvt Ltd,India,,,,,,,,,
