Company name,Country,City,Province,Site address,Company website,BAP Cert,ASC Cert,FOS Cert,FIP Cert,MarinTrust Cert
Proteins Australia Pty Ltd,Australia,Horsham,Victoria,"18 Carine St, Horsham VIC 3400, Australia",https://approteins.com.au/,,,,,
Mundo Branco S. A.,Argentina,Vivoratá,Buenos Aires Province,"88HF+99, Vivoratá, Buenos Aires Province, Argentina",,,,,,
Huatai Pharma Inc,China,,,,https://friendofthesea.org/company/huatai-pharma-inc/,,,,,
Liaoyu Antarctic Krill Technology Development Co. Ltd.,China,,,,https://friendofthesea.org/liaoyu-antarctic-krill-technology-development-co-ltd/,,,,,
Aller Aqua A/S,Denmark,Christiansfeld,,"Allervej 130, 6070 Christiansfeld, Denmark",https://www.aller-aqua.com/contact/factories,,,,,
(Quirola),Ecuador,Guayaquil,Guayas,"R4M3+QR6, Av. Francisco de Orellana, Guayaquil 090512, Ecuador",,,,,,
BARACAMAR S.A.,Ecuador,Guayaquil,Guayas,"Miguel Alcivar Vasquez, S/N, Centro, R4M4+R4V, Guayaquil 090506, Ecuador",,,,,,
Africa Feed Suarl,Senegal,Yenne Tode,Région de Dakar,"MRWV+J5V, Yenne Tode, Senegal",,,,,,
Calvo Conservas El Salvador SA de CV,El Salvador,San Miguel,La Unión Department,"85HP+27R Calle Playitas La Unión, San Miguel, El Salvador",,,,,,
IQI BV,United States of America,,,,https://www.iqi-petfood.com/,,,,,
Brim,Iceland,Reykjavík,Reykjavíkurborg,"Norðurgarður 1, 101 Reykjavík, Iceland",https://amerisk-islenska.is/amis-felagatal/,,,,,
Industrial Maule Ltda,Chile,Coronel,Bío Bío,"AVENIDA #1100 PARQUE INDUSTRIAL CORONEL - Av. Forestal, 4191880 Coronel, Bío Bío, Chile",,,,,,
"Binzhou City Public Sen Industry And Trade Co., Ltd.",China,,,,https://corporate.target.com/getmedia/07f80eea-2009-4943-8d20-f7e4138c1eba/Target-Global-Factory-List.xlsx,,,,,
"Qingdao Zhenchangshen Commercial And Trade Co., Ltd.",China,Qing Dao Shi,Shan Dong Sheng,"9 Nan Jing Lu, 东部商圈 Shi Nan Qu, Qing Dao Shi, Shan Dong Sheng, China, 266073",,,,,,
Industrial Maule Ltda,Chile,Coronel,Bío Bío,"AVENIDA #1100 PARQUE INDUSTRIAL CORONEL - Av. Forestal, 4191880 Coronel, Bío Bío, Chile",,,,,,
BEL MEAL,Senegal,Dakar,Région de Dakar,"PGCV+JJF, Rue DD 115, Dakar, Senegal",https://theses.fr/2012MON20095.pdf,,,,,
GOLD FIN INTERNATIONAL L.L.C,Oman,,Al Wusta Governorate,Oman,https://www.unicef.org/oman/media/421/file/CWEI%20Report%20.pdf,,,,,
"Rongcheng Rixin Aquatic Products Co., Ltd.",China,Wei Hai Shi,Shan Dong Sheng,"379 Feng Huang Hu Lu, 379, Rong Cheng Shi, Wei Hai Shi, Shan Dong Sheng, China, 264308",,,,,,
Marine Protein Marprot S.A.,Ecuador,Guayaquil,Guayas,"Urdesa Norte, Guayaquil 090150, Ecuador",,,,,,
"Shandong Hongji Biology Technology Co., Ltd",China,Ji Nan Shi,Shan Dong Sheng,"26 Nan Yuan Jie, Ping Yin Xian, Ji Nan Shi, Shan Dong Sheng, China, 250407",,,,,,
"Shandong Rongfeng Bio-Technology Development Co., Ltd",China,Zibo,Shandong,"23R5+J3R, Huantai County, Zibo, Shandong, China, 256406",,,,,,
BioMar A/S,Denmark,Brande,,"Mylius-Erichsensvej 35, 7330 Brande, Denmark",https://foedevarestyrelsen.dk/Media/638430797774270756/GACC%20list%20-%20Denmark%20updated%20on%2020231130.pdf,,,,,
Rongcheng Blue Ocean Biotech,China,,,,https://www.iffo.com/visit-shandong-province-stronghold-fishmeal-production-china,,,,,
Rongcheng Jinghai Dingqian Xingyang Fish Meal Factory,China,Wei Hai Shi,Shan Dong Sheng,"20 Huang Hai Nan Lu, Rong Cheng Shi, Wei Hai Shi, Shan Dong Sheng, China, 264309",,,,,,
Rongcheng Xingyang Fishmeal Factory,China,,,,https://www.asc-aqua.org/wp-content/uploads/2022/06/2022_06-CoC-holders-with-scope.xlsx,,,,,
Shandong Qilong Group Co. Ltd.,China,Zibo,Shandong,"Q5H7+238, Zhangdian District, Zibo, Shandong, China, 255411",,,,,,
Auqi Marine Bio-Tech Co. Ltd.,China,Chang Zhou Shi,Jiang Su Sheng,"China, Jiang Su Sheng, Chang Zhou Shi, Wu Jin Qu, 342省道GX9P+86H 邮政编码: 213171",,,,,,
Ísfélag Vestmannaeyja hf,Iceland,Vestmannaeyjabær,Vestmannaeyjabær,"Tangagata, 900 Vestmannaeyjabær, Iceland",https://isfelag.is/,,,,,
"[OLD NAME: FPP ""Socra"" Co., Ltd.] RPZ Sokra LLC",Russia,,,,https://www.chinafeedonline.com.hk/sites/default/files/07_Russia_20220614.xls,,,,,
Corporacion De Proyectos Multiples Mult.I.Proyectos S.A.,Ecuador,Chanduy,Santa Elena,"J72X+3J9, Chanduy, Ecuador",,,,,,
"Trident Seafoods Corporation (Sand Point, AK Shore Plant)",United States of America,Sand Point,Alaska,"229 Main St, Sand Point, AK 99661, USA",https://www.tridentseafoods.com/about-us/our-facilities-and-global-reach,,,,,
Kurzeme Fisheries Producers Organization,Latvia,Rīga,,"Bruņinieku iela 29/31, Centra rajons, Rīga, LV-1001, Latvia",https://wanderlog.com/list/geoCategory/813914/best-live-music-venues-and-concert-halls-in-riga,,,,,
Corporacion De Proyectos Multiples Mult.I.Proyectos S.A.,Ecuador,Chanduy,Santa Elena,"J72X+3J9, Chanduy, Ecuador",,,,,,
CRISTOBAL TOMAS GONZALEZ POZO/PINDHAGON,Ecuador,,Los Ríos,"Vía Guaranda Babahoyo, Ecuador",,,,,,
Pesquera Centromar S.A.,Ecuador,Chanduy,Santa Elena,"J73W+J5V, Chanduy, Ecuador",,,,,,
Fiordo Austral S.A.,Chile,Coronel,Bío Bío,"Unnamed Road, Coronel, Bío Bío, Chile",https://datosretc.mma.gob.cl/lt/datastore/dump/d1682353-3e5f-4100-9a53-f4b9650e2984?bom=True,,,,,
Syarikat Kilang Serbok Ikan (Asia) Sdn. Bhd.,Malaysia,Alor Setar,Kedah,"Kampung Sematang Pinang Kuala Kedah, Kampung Ulu, 06600 Alor Setar, Kedah, Malaysia",https://trungtamwto.vn/file/20474/danh-sach-doanh-nghiep-xuat-nhap-khau-hang-thuc-pham-do-uong-malaysia.pdf,,,,,
Icicle Seafoods Corporation Northern Victor (shore plant),United States of America,Anchorage,Alaska,"Anchorage, AK 99505, USA",https://wanderlog.com/drive/between/58198/58154/anchorage-to-seattle-drive,,,,,
Icicle Seafoods Corporation Northern Victor (shore plant),United States of America,Anchorage,Alaska,"Anchorage, AK 99505, USA",https://wanderlog.com/drive/between/58198/58154/anchorage-to-seattle-drive,,,,,
DELTAGEN ECUADOR S.A.,Ecuador,Quito,Pichincha,"VGRX+888, Quito 170133, Ecuador",,,,,,
Aquatic Food Manufacturing Corporation,Philippines,Zamboanga,Zamboanga Peninsula,"XX44+6MJ, Zamboanga, Zamboanga del Sur, Philippines",,,,,,
DESPROCAR,Ecuador,El Carmen,Manabí,"PGGV+R8F, El Carmen, Ecuador",,,,,,
Tangawira Sdn. Bhd.,Malaysia,Kudat,Sabah,"89050 Kudat, Sabah, Malaysia",https://www.newpages.com.my/v2/en/company/662035/Tangawira_Sdn_Bhd.html,,,,,
DIBAR S.A.,Ecuador,Durán,Guayas,"Km. 3.5 Via Durán Tambo, Sector Ferias, Manzana S, Solares 24-25, Durán 090702, Ecuador",,,,,,
HARINAS Y CONSERVAS DE PESCADO HARCONPEZ S.A,Ecuador,San Pablo,Santa Elena,"V62H+5R, San Pablo, Ecuador",,,,,,
INASA Industrial Aceitera SA,Ecuador,Guayaquil,Guayas,"Km a (a lado de VECONSA S.A.) Ecuador, 224H+45Q, Via Daule, Guayaquil, Ecuador",,,,,,
LUIS ANTONIO POZO ASCENCIO,Ecuador,,,,https://www.produccion.gob.ec/wp-content/uploads/2023/12/PLANTAS-DE-HARINAS-Y-O-ACEITES-PH-21122023.pdf,,,,,
MULTIPRO_YECTO S.A.,Ecuador,Esmeraldas,Esmeraldas,"Av. Sucre, y, Esmeraldas 080102, Ecuador",,,,,,
NAGRO S.A.,Ecuador,Tanicuchi,Cotopaxi,"5CM5+9F4, Tanicuchi, Ecuador",https://fliphtml5.com/wtae/kxon/Catalogo_Nacional_de_Objetos_Geograficos/,,,,,
NU MEGA INGREDIENTS ECUADOR NMI S.A.,Ecuador,Quito,Pichincha,"Avenida Juan Molineros E9-255 y, Quito 170513, Ecuador",,,,,,
NUTRIFISHING S.A,Ecuador,Guayaquil,Guayas,"Parque Empresarial ""Nexus, Autop. Narcisa de Jesús 1, Guayaquil 090703, Ecuador",,,,,,
P D-PESCA,Ecuador,Guayaquil,Guayas,"Eloy Alfaro 1608, Guayaquil 090308, Ecuador",,,,,,
Southwest Asian Canning Corporation (SACC),Philippines,Zamboanga,Zamboanga Peninsula,"Purok 1, Zamboanga, 7000 Zamboanga del Sur, Philippines",https://customs.gov.ph/wp-content/uploads/2023/03/POM-JAO20-01-NTFE-ARRIVAL-MARCH-19-21-2021.pdf,,,,,
PEANDRES S.A,Ecuador,Guayaquil,Guayas,"R49G+P98, Guayaquil 090313, Ecuador",,,,,,
PESQUERA CENTRO MAR,Ecuador,Chanduy,Santa Elena,"J73W+J5V, Chanduy, Ecuador",,,,,,
PINDHAGON S.A.,Ecuador,Monteverde,Santa Elena,"X73P+653, Monteverde, Ecuador",,,,,,
Gold Star Seafoods,Philippines,Zamboanga,Zamboanga Peninsula,"XWGM+5QV, Zamboanga, Zamboanga Sibugay, Philippines",https://zaubee.com/biz/gold-star-seafoods-w47b1cy3,,,,,
AR Global Fishmeal,Indonesia,,Jawa Timur,"Jl. Raya Tambakboyo No.60, Glondong, Glondonggede, Kec. Tambakboyo, Kabupaten Tuban, Jawa Timur 62352, Indonesia",,,,,,
PRODUCTORA MARVIVO S.A PROMARVI,Ecuador,El Real,Santa Elena,"El Real, Ecuador","https://www.oceanexpert.net/advanceSearch?action=browse&instCountry=E&filterType=,,,experts,experts,,,,,,,,,,,,,,,&page=8&filterCountry=Ecuador",,,,,
Biji Sesawi,Indonesia,,Papua,"BTN CERIA JALUR 1 Unnamed Road, Hinekombe, Kec. Sentani, Kabupaten Jayapura, Papua 99352, Indonesia",,,,,,
PROVEEDORES DE LA COSTA PROVECOSTA CIA. LTDA.,Ecuador,Santo Domingo,Santo Domingo de los Tsáchilas,"Via quevedo km7 entrada a Puerto limón km 1, Santo Domingo, Ecuador",https://cursos.yura.website/wp-content/uploads/2023/01/Exportaciones-diciembre-2022.xlsx,,,,,
"Bombana Raya, CV",Indonesia,,South East Sulawesi,"Bombana Regency, South East Sulawesi, Indonesia",https://www.nature.org/content/dam/tnc/nature/en/documents/SnapperSupplyLines.pdf,,,,,
CV SUMBER REJEKI MAKMUR SEJAHTERA,Indonesia,,Jawa Timur,"H82Q+G96, Dusun Stoplas, Kedungrejo, Kec. Muncar, Kabupaten Banyuwangi, Jawa Timur 68472, Indonesia",,,,,,
Comapeche Farine S.A.,Mauritania,Nouakchott,Nouakchott-Ouest,"4X3G+5CX, Nouakchott, Mauritania",,,,,,
Janatha Inter Fish Protein,Mauritania,Nouakchott,Nouakchott Sud,"32FR+CP6 Port de pêche à Nouakchott 471, Nouakchott, Mauritania",,,,,,
REMO ROHN S.A.,Ecuador,Quito,Pichincha,"C. E9, Quito 170144, Ecuador",,,,,,
ROSMEY S.A.,Ecuador,,Pichincha,"Recinto la Celica - Calle Loja Pedro Vicente Maldonado, 170850, Ecuador",https://www.banco-solidario.com/sites/default/files/2020-02/Base-de-Agentes-Pago-%C3%81gil-2020-Enero.xlsx,,,,,
SEGUNDO FELIPE ASCENCIO RIVERA,Ecuador,,,,https://www.marin-trust.com/sites/marintrust/files/2022-05/MOU%20ECUAFEED.pdf,,,,,
"INDAH KEMILAU ALAM NUSANTARA, CV",Indonesia,,Jakarta,"RX49+F2H, RT.7/RW.5, Ujung Menteng, Cakung, East Jakarta City, Jakarta 13960, Indonesia",,,,,,
Industri Tepung,Indonesia,,Daerah Khusus Ibukota Jakarta,"L'Avenue office tower floor 20c Jl. Raya pasar minggu kav.16 Jakarta selatan, RT.1/RW.7, Duren Tiga, Kec. Pancoran, Kota Jakarta Selatan, Daerah Khusus Ibukota Jakarta 12780, Indonesia",https://www.semuabis.com/pt-raja-tepung-indonesia_2e-021-80667171,,,,,
Mauritania Business SARL,Mauritania,Nouadhibou,,"20.906096, -17.043138, Nouadhibou, Mauritania",https://www.africabizinfo.com/fr-MR/p%C3%A2tisserie-pleine-lune,,,,,
SIQUALITY S.A.,Ecuador,Guayaquil,Guayas,"V425+JVQ, Guayaquil 090513, Ecuador",,,,,,
JXYG,Gambia,Banjul,Kerewan,"Farafenni, Banjul, The Gambia",https://senegal.mid.ru/upload/iblock/729/729ec210e61c6d946e6916aa006e890b.pdf,,,,,
STOLLER ECUADOR S.A.,Ecuador,Quito,Pichincha,"Avenue Alonso de Angulo, Quito 170111, Ecuador",,,,,,
Mauritania Sea Food SARL,Mauritania,Nouakchott,Nouakchott Sud,"32FR+CP6 Port de pêche à Nouakchott 471, Nouakchott, Mauritania",,,,,,
PT Lautan Kembar Sejati,Indonesia,,Central Java,"RT.05/RW.02, Mutalan, Purworejo, Kaliori, Rembang Regency, Central Java 59252, Indonesia",https://perusahaan.net/detail/g6mn6/Lautan-Kembar-Sejati/,,,,,
UNIVERSAL DE COMERCIO S.A. UNICORSA,Ecuador,,Guayas,"Villa 28 Mz 13, Ecuador",https://www.produccion.gob.ec/wp-content/uploads/2024/08/BARCOS-SARDINEROS-BP-SARD-OTROS-15082024.pdf,,,,,
Mulia abadi tepung ikan (Noble perennial fishmeal),Indonesia,,,,https://pdfcoffee.com/work-sample-3-pdf-free.html,,,,,
PT Munchar,Indonesia,,Jawa Timur,"H86R+988, Dusun Sampangan, Kedungrejo, Kec. Muncar, Kabupaten Banyuwangi, Jawa Timur 68472, Indonesia",,,,,,
MOUHIT AL BARAKA SA,Mauritania,Nouakchott,South Nouakchott,"Marocaine Market, Rue Bakary Hakha, Nouakchott, Mauritania",https://downloads.cs.stanford.edu/nlp/data/jiwei/data/vocab_wiki.txt,,,,,
Pabrik Tepung Ikan PPP Tegalsari (PPP Tegalsari Fish Meal Factory),Indonesia,,Central Java,"542G+3WW, Tegalsari, Tegal Barat, Tegal City, Central Java 52111, Indonesia",,,,,,
PT Adhinusa Dian Manggalindo,Indonesia,,Jawa Tengah,"Jl. Bali No.10, Mintaragen, Kec. Tegal Tim., Kota Tegal, Jawa Tengah 52121, Indonesia",,,,,,
PT. Bali Omega,Indonesia,,Bali,"Jl. Pantai Selatan No.7, Cupel, Kec. Negara, Kabupaten Jembrana, Bali 82218, Indonesia",https://jembranakab.go.id/foto_beritaskpd/20150325_100216dkpk2014.pdf,,,,,
PT. CNL Maju Bersatu,Indonesia,,Jawa Tengah,"Jl. Wr. Supratman No.131 RT. 001, Panjang Wetan, Kec. Pekalongan Utara, Kota Pekalongan, Jawa Tengah 51141, Indonesia",https://id.scribd.com/document/619267701/Direktori-Industri-Manufaktur-Indonesia-2022,,,,,
Ud Samudra Kencana,Indonesia,,Bali,"JH5H+XWP, Pengambengan, Negara, Jembrana Regency, Bali 82218, Indonesia",,,,,,
Omaurci SA,Mauritania,Nouadhibou,,"BP 238, Nouadhibou, Mauritania",https://mauritania-pelagic.com/,,,,,
PT Sarifeed Indojaya,Indonesia,,Jawa Timur,"Jalan Pelabuhan No No.35, Dusun Sampangan, Kedungrejo, Kec. Muncar, Kabupaten Banyuwangi, Jawa Timur 68472, Indonesia",https://diskanlut.jatimprov.go.id/files/uploads/2016/04/ukm_dan_upi.pdf,,,,,
Proteine Seafood,Mauritania,Nouakchott,Nouakchott-Ouest,"4X3G+5CX, Nouakchott, Mauritania",,,,,,
Rim Fish Meal,Mauritania,Nouakchott,Nouakchott Sud,"32FR+CP6 Port de pêche à Nouakchott 471, Nouakchott, Mauritania",,,,,,
SFHP SARL,Mauritania,,,,https://www.fip-petitspelagiques-mauritanie.org/partenaires,,,,,
Tepung Ikan Bangkit Jaya (Bangkit Jaya Fish Meal),Indonesia,,Jawa Tengah,"542J+3HX, Jl. Jongor, Tegalsari, Kec. Tegal Bar., Kota Tegal, Jawa Tengah 52111, Indonesia",https://pdfcoffee.com/direktori-industri-manufaktur-2020-pdf-free.html,,,,,
TEPUNG IKAN BYPASS KRIAN,Indonesia,,Jawa Timur,"Jl. Bypass Krian, RT.4/RW.2, Tundungan, Sidomojo, Kec. Krian, Kabupaten Sidoarjo, Jawa Timur 12262, Indonesia",,,,,,
Tepung Ikan Manual Muncar (Muncar manual fish meal),Indonesia,,Jawa Timur,"Jl. Sampangan, Dusun Sampangan, Kedungrejo, Kec. Muncar, Kabupaten Banyuwangi, Jawa Timur 68472, Indonesia",https://id.scribd.com/document/495925154/Direktori-Industri-Manufaktur-2020,,,,,
TEPUNG IKAN MURNI BEKASI (BEKASI PURE FISH FLOUR),Indonesia,,Jawa Barat,"Gg. Moh. Usir, Duren Jaya, Kec. Bekasi Tim., Kota Bks, Jawa Barat 17111, Indonesia",,,,,,
Tepung ikan/minyak ikan SBR (SBR fish meal/fish oil),Indonesia,,Jawa Timur,"JFGC+99R, Jl. Polda Sabari, Manderan II, Puger Kulon, Kec. Puger, Kabupaten Jember, Jawa Timur 68164, Indonesia",,,,,,
PT. Sais Jaya Abadi,Indonesia,,Jawa Timur,"Karang Gayam, Sumberrame, Kec. Wringinanom, Kabupaten Gresik, Jawa Timur 61176, Indonesia",,,,,,
Agouzzal & CIE S.A.,Morocco,,,,https://rocketreach.co/moulay-agouzzal-email_107185704,,,,,
Pesquera Herco SA,Ecuador,Chanduy,Santa Elena,"J73V+P5M, Chanduy, Ecuador",,,,,,
CV Bumi Indo,Indonesia,,Jawa Timur,"Jl. Tirta Suam No.1, Mergelo, Kedundung, Kec. Magersari, Kota Mojokerto, Jawa Timur 61312, Indonesia",https://www.daftar.co/perusahaan-di-mojokerto/,,,,,
Pabrik Tepung Ikan,Indonesia,,Jawa Barat,"Jl. Lembur 3 No.23, RT.002/RW.005, Jatirangga, Kec. Jatisampurna, Kota Bks, Jawa Barat 17433, Indonesia",https://fliphtml5.com/ejapx/ftqw/Sampel_eBook_Wisuda_Universitas_Pancasila_2020/,,,,,
PT Bumi Indo Jaya,Indonesia,,Jawa Tengah,"Jl. Raya Tegal - Pemalang No.KM, RW.7, Area Sawah/Kebun, Kramat, Kec. Kramat, Kabupaten Tegal, Jawa Tengah 52181, Indonesia",https://www.akli.org/direktori-20-2,,,,,
PT Indocitra Jaya Sumadera,Indonesia,,Bali,"JL. Ketapang, Pangambengan, Negara, JH2Q+2P5, Pengambengan, Denpasar, Pengambengan, Kec. Negara, Kabupaten Jembrana, Bali, Indonesia",,,,,,
IQI BV,Netherlands,Amersfoort,Utrecht,"Smallepad 32, 3811 MG Amersfoort, Netherlands",,,,,,
Almeve SARL,Morocco,Safi,Marrakech-Safi,"Route du, 7P5R+95R, Rte Jorf El Youdi, Safi 46000, Morocco",https://www.goafricaonline.com/ma/annuaire/agroalimentaire,,,,,
Complexe Industriel des Produits de la Mer (CIPMER) S.A,Morocco,Agadir,Souss-Massa,"Nouveau Port D'Anza, Parcelle 85, Agadir 80000, Morocco",,,,,,
Dinay Bluewave,Morocco,Tétouan,Tanger-Tétouan-Al Hoceima,"26, de 93000, Association QUARTIER INDUSTRIEL TETOUAN - AQIT, Tétouan, Morocco",,,,,,
Malufra 2,Morocco,,,,https://www.seafoodfrommorocco.com/fr/all_exportateurs/malufra-2/,,,,,
Olvea Atlantic 2,Morocco,,,,https://www.olvea.com/,,,,,
Beltran Peru E.I.R.L.,Peru,Lima,Gobierno Regional de Lima,"Av Cascanueces Mz M Lote 6 Sublote 1 - Santa Anita Lima, Lima 15011, Peru",,,,,,
S.P.P. (Sous Produits du Poisson),Morocco,Safi,Marrakech-Safi,"7P4R+55Q, Oued Tensift, Safi, Morocco",,,,,,
Pesquera Miguel Angel S.A.C.,Peru,,,,https://repositorio.ucv.edu.pe/handle/20.500.12692/39237,,,,,
Tan Tan Sardine,Morocco,Tan-Tan,Guelmim-Oued Noun,"Z.I Route Tilemzoune, B.P. 270 - Tan Tan، Tan-Tan 82000, Morocco",,,,,,
Tantasar,Morocco,Tantan,Guelmim-Oued Noun,"G2W4+8XG, Tantan, Morocco",,,,,,
Tadel SA,Ecuador,Manta,Manabí,"Km. 7. via, Av 5, Manta, Ecuador",https://www.produccion.gob.ec/wp-content/uploads/2022/10/EC-ABP-FSB-6-es.pdf,,,,,
Pesquera 2020 S.A.C.,Peru,,,,https://www.gob.pe/institucion/produce/normas-legales/1329057-00139-2020-produce-dgaampa,,,,,
ECUAFEED S.A.,Ecuador,Monteverde,Santa Elena,"X73P+55P, Monteverde, Ecuador",,,,,,
HARINA DE CAMARON HARCAM S.A.S.,Ecuador,,,,https://www.emis.com/php/company-profile/EC/Harina_de_Camaron_Harcam_SAS_es_14672662.html,,,,,
HARINA DE PESCADO DE EXPORTACION HARDEPEX CIA. LTDA.,Ecuador,Manta,Manabí,"28XJ+R46, Vía Manta - Jaramijo, Manta 130204, Ecuador",,,,,,
INDUSTRIA HARINERA DEL PACIFICO S.A. INHARIPAC S.A.,Ecuador,Jaramijó,Manabí,"Jaramijó, Ecuador",https://www.emis.com/php/company-profile/EC/Industria_Harinera_del_Pacifico_SA_Inharipac_en_3964106.html,,,,,
Atlantic Fish S.R.L.,Peru,Jibito,Piura,"36PX+4J5, Jibito 20770, Peru",,,,,,
C & H Fish S.A.C.,Peru,Callao,Callao,"Prolongacion Centenario 657, Callao 07046, Peru",,,,,,
Cantarana S.A.C,Peru,Chimbote,Áncash,"A, Chimbote 02804, Peru",,,,,,
The Waterbase,India,Ananthapuram,Andhra Pradesh,"Ananthapuram, Andhra Pradesh 524344, India",https://www.waterbaseindia.com/online_pdf/WB_board_meeting_Outcome_May2022.pdf,,,,,
Compania Pesquera del Pacifico Centro S.A.,Peru,Chimbote,Áncash,"B1, Chimbote 02804, Peru",https://repositorio.uns.edu.pe/bitstream/handle/20.500.14278/3985/52471.pdf?sequence=1&isAllowed=y,,,,,
Compania Pesquera del Pacifico Centro S.A.,Peru,Chimbote,Áncash,"B1, Chimbote 02804, Peru",https://repositorio.uns.edu.pe/bitstream/handle/20.500.14278/3985/52471.pdf?sequence=1&isAllowed=y,,,,,
Al Faizal Dry Fish,India,Somnath,Gujarat,"GIDC Plot No 203/1 Behind GIDC Industries Near New faizan foods, Veraval, Somnath, Gujarat 362268, India",,,,,,
Compania Pesquera del Pacifico Centro S.A.,Peru,Chimbote,Áncash,"B1, Chimbote 02804, Peru",https://repositorio.uns.edu.pe/bitstream/handle/20.500.14278/3985/52471.pdf?sequence=1&isAllowed=y,,,,,
Conservera San Lucas S.A.C.,Peru,Chimbote,Áncash,"VCHX+WHF, Chimbote 02711, Peru",,,,,,
Corporacion Pesquera Coishco S.A.,Peru,Coishco,Áncash,"1, Coishco 02413, Peru",https://www.mef.gob.pe/contenidos/inv_privada/obras_impuestos/base_adjudicaciones_OXI_31082024.xlsx,,,,,
Ambitious Fishmeal Product,India,Ratnagiri,Maharashtra,"2922+RV6, Ratnagiri, Maharashtra 415639, India",,,,,,
Anfal Marine Products,India,,Karnataka,"P6XH+4RC, Port Rd, Karnataka 581324, India",,,,,,
Arbee Biomarine Extracts Private Limited,India,Nanjangud,Karnataka,"Plot No : 13/P2, Thandya Industrial area, Thandavapura, Nanjangud, Adakanahalli, Karnataka 570301, India",https://kspcb.karnataka.gov.in/sites/default/files/inline-files/Mysore-2_1.pdf,,,,,
Bawa Fishmill & Oil Co.,India,Mangaluru,Karnataka,"4th D.No. 19, Paradigm Plaza 10, 512, 30, AB Shetty Cir, Baikampady, Mangaluru, Karnataka 575001, India",https://www.indiamart.com/bawafishmeal/profile.html,,,,,
Dexim Srl,Peru,Paita,Piura,"Mz. A Lt. 7 y 8, Zona Industrial II, Paita 20701, Peru",https://www.hotfrog.com.pe/search/paita,,,,,
Industria Atunera S.A.C.,Peru,Paita,Piura,"WVF6+39H, Paita 20701, Peru",,,,,,
Econort Group S.A.C.,Peru,,Piura,"1NK, 20690, 20690, Peru",,,,,,
Blueline foods India Pvt. Ltd Unit - I,India,Ullal,Karnataka,"Mogaveera Higher Primary School, Beach Rd, Ullal, Karnataka 575020, India",https://ksei.karnataka.gov.in/uploads/media_to_upload1718781104.xlsx,,,,,
Inversiones Oslo S.A.C.,Peru,Chimbote,Áncash,"VCVQ+XHV, Pescadores, Chimbote 02804, Peru",,,,,,
Pacific Freezing Company S.A.C.,Peru,Santiago de Surco,Provincia de Lima,"Av. Javier Prado Este 4065, Santiago de Surco 15023, Peru",https://issuu.com/revistaindustriaalimentaria/docs/directorio_industria_alimentaria_2019__02-08-2019_,,,,,
Global Marine Exports,India,Navi Mumbai,Maharashtra,"G-2, Taloja, Navi Mumbai, Maharashtra 410208, India",https://www.indiamart.com/global-marine-exports/,,,,,
CPD FARINE,Western Sahara,,,,https://sjoseph.ucdavis.edu/sites/g/files/dgvnsk9446/files/inline-files/bibliography_0.pdf,,,,,
Hind Aquatic,India,Jakhau,Gujarat,"6P45+WJH, Jakhau, Gujarat 370640, India",,,,,,
"New Hope Liuhe Co., Ltd.",China,Wu Wei Shi,Gan Su Sheng,"China, Gan Su Sheng, Wu Wei Shi, Liang Zhou Qu, 新建路WJM2+6J5 邮政编码: 733004",,,,,,
HKA Bawa & Sons,India,Mangaluru,Karnataka,"Bawa Chambers, Goods Shed Rd, Hoige Bazaar, Bunder, Mangaluru, Karnataka 575001, India",https://www.justdial.com/Mangalore/Fish-Meal-Manufacturers-in-Ullal/nct-10934123,,,,,
Indo Fish Meal & Oil Company Private Limited,India,Mangalore,Karnataka,"D.NO.1-1/11, Beach Road, Ullal Industrial Area, Kotepura, Ullal, Mangalore, Karnataka 575020, India",https://www.chinafeedonline.com.hk/sites/default/files/pdf/aqsiq_list/India_FM_20240827.pdf,,,,,
J.M. Sea Foods,India,Mimisal,Tamil Nadu,"Palakkudi, Ayyampattinam, Mimisal, Mimisal Chatrapattinam, Tamil Nadu 614621, India",,,,,,
Jaimar Enterprises,India,Palayakkayal,Tamil Nadu,"5/388, Kovankadu Rd, Palayakkayal, Iruvappapuram, Tamil Nadu 628152, India",https://e-mpeda.nic.in/registration/Rpt_Region_Wise_Exporters_Detailed_New.aspx?OffId=13&Office=SRD%20Tuticorin&Categ=ExporterME,,,,,
Janatha Fish Meal and Oil Products,India,Kota,Karnataka,"Fisheries Rd, Manoor, Kota, Karnataka 576221, India",https://www.janathafishmeal.com/contacts.php,,,,,
Can Kardeşler Su Ürünleri San. Tic. A.Ş. Yem İşletmesi,Turkey,,Manisa,"Şehitler, 45020 Şehzadeler/Manisa, Türkiye",https://www.sehzadeler.bel.tr/uploads/images/AEHZADELER_BELEDYES_FAALYET_RAPORU_2023__.pdf,,,,,
Jenefa India,India,,Tamil Nadu,"Sy. No 764/1,2, 3, Vadakku karaseri, Tamil Nadu 628104, India",,,,,,
Marina De Guerra Del Peru,Peru,Callao,Callao Region,"WRJR+X9X, Callao 07021, Peru",,,,,,
LAAYOUNE PROTEINES S.A.R.L,Western Sahara,,,,https://vest-sahara.s3.amazonaws.com/skvs/feature-images/File/243/5fc82120abf59_AbovetheLaw2020_web.pdf,,,,,
Can.Kardeşler Su Ürün.San.Ve Tic.A.Ş. Bal.Un.Fab.,Turkey,,İzmir,"Hürriyet, 465. Sk. 11 D, 35370 Buca/İzmir, Türkiye",https://rahattss.oyakgrupsigorta.com/Bupa%20Ac%C4%B1badem%20%C3%96SS%20Anla%C5%9Fmal%C4%B1%20Kurumlar.xlsx,,,,,
"Dalyan Su Urunleri ve Gida San. Nak. Tic. Ltd. Sti. (KOBYALAR
GROUP)",Turkey,,Sinop,"Kırçal, Gevez Mevkii No:21/A, 57660 Karaağaç/Dikmen/Sinop, Türkiye",,,,,,
Dardanel Önentaş Gıda Sanayi Anonim Şirketi Balık Unu Fabrikası,Turkey,,Çanakkale,"Cumhuriyet, İzmir Çanakkale Yolu No:4, 17100 Kepez/Çanakkale Merkez/Çanakkale, Türkiye",,,,,,
Ege İz Yem,Turkey,,Uşak,"Merkez Mevkii Gölyeri Sokak No:6, 64902 Kışla/Ulubey/Uşak, Türkiye",,,,,,
Sepomer (alt name: Sepomer Sahara II),Western Sahara,,,,https://vest-sahara.s3.amazonaws.com/skvs/feature-images/File/243/5fc82120abf59_AbovetheLaw2020_web.pdf,,,,,
Min Zar Ni Co. Ltd.,Myanmar,ရန်ကုန်,ရန်ကုန်တိုင်းဒေသကြီး,"16.847985, 96.098669, ရန်ကုန်, Myanmar (Burma)",,,,,,
King Fish Products,India,New Delhi,Delhi,"A-22, Block UB, Jawahar Nagar, Kamla Nagar, New Delhi, Delhi, 110007, India",https://myannoyingopinions.com/2022/03/20/a-lot-of-fish-and-some-vegetables-at-chittaranjan-park-market-new-delhi-march-2022/,,,,,
Min Zar Ni Co. Ltd.,Myanmar,ရန်ကုန်,ရန်ကုန်တိုင်းဒေသကြီး,"16.847985, 96.098669, ရန်ကုန်, Myanmar (Burma)",,,,,,
M/s Blueline Foods (India) Pvt. Ltd. Unit-II,India,Bantwal,Karnataka,"Door no.1-312, Kambla Padav, Kurnad, Post, Kairangala Village, Bantwal, Karnataka 574153, India",https://ksei.karnataka.gov.in/uploads/media_to_upload1718781104.xlsx,,,,,
Min Zar Ni Co. Ltd.,Myanmar,ရန်ကုန်,ရန်ကုန်တိုင်းဒေသကြီး,"16.847985, 96.098669, ရန်ကုန်, Myanmar (Burma)",,,,,,
Mowi Markets Norway AS,Norway,,Trøndelag,"Fv17, 7876 Kongsmoen, Norway",,,,,,
Mangalore Marine Products,India,Mangaluru,Karnataka,"D.No 1-2/1,2 Sea Road Kotepura, Ullal, Ullal Industrial Area, Mangaluru, Karnataka 575020, India",https://e-mpeda.nic.in/registration/Rpt_Region_Wise_Exporters_Detailed.aspx?OffId=03&Office=SRD%20Mangalore&Categ=Storage03,,,,,
Musselfeed SE,Sweden,,Västra Götalands län,"Hallgrens väg 3, 474 31 Ellös, Sweden",https://www.ratsit.se/5569491334-MusselFeed_AB,,,,,
[OLD NAME: SOMATRAPS] Sté Marocaine de Traitement de Poisson Sud (Somatraps)  S.A.R.L.,Western Sahara,El Aaiún,,"Zone industriel Laâyoune Port, 4RM3+C56, El Aaiún 70000",,,,,,
MM Ashraf LLP - Manufacturer of Fish Meal and Fish Oil,India,Ratnagiri,Maharashtra,"Plot No: B-14/1, MIDC Mirjole, near Hotel Kanchan, Ratnagiri, Maharashtra 415639, India",https://www.justdial.com/jdmart/Ratnagiri/M-M-Ashraf-LLP-Midc-Near-Hotel-Kanchan-Mirjole-Ratnagiri/9999P2352-2352-210812161913-L1W4_BZDET/catalogue,,,,,
Pesquera Exalmar S.A.,Peru,Lima,Callao,"XVX8+HJF, Prolongacion Centenario, Lima 07046, Peru",,,,,,
Mukka Proteins Limited,India,Mangaluru,Karnataka,"Mukka Corporate House,1st Cross, Nandigudda Rd, Attavar, Mangaluru, Karnataka 575001, India",https://www.mukkaproteins.com/about-mukka-proteins.php,,,,,
[OLD NAME: SOTRAGEL] Ste de Traitement et de Congelation de Poissons (SOTRAGEL),Western Sahara,,,,https://www.kerix.net/en/annuaire-entreprise/fishmeal.html,,,,,
Pesquera Exalmar S.A.,Peru,Lima,Callao,"XVX8+HJF, Prolongacion Centenario, Lima 07046, Peru",,,,,,
Laayoune Elevage,Western Sahara,Laayoune,,Laayoune,https://vest-sahara.s3.amazonaws.com/skvs/feature-images/File/243/5fc82120abf59_AbovetheLaw2020_web.pdf,,,,,
Atlantic Tank Terminal,Western Sahara,,,,https://www.theatlantic.com/magazine/archive/1958/09/oil-in-the-sahara/640797/,,,,,
Afropesca,Western Sahara,,,Western Sahara,https://vest-sahara.s3.amazonaws.com/skvs/feature-images/File/243/5fc82120abf59_AbovetheLaw2020_web.pdf,,,,,
Protein and Oil Industry Sarl,Western Sahara,Dakhla,Casablanca-Settat,"234, Z.l. Hay Assalam، Dakhla 73000, Morocco",,,,,,
BLT Berg LipidTech AS,Norway,,Møre og Romsdal,"Sjukenesstranda 62, 6037 Veibust, Norway",,,,,,
GC Rieber VivoMega AS,Norway,,Møre og Romsdal,"Teistholmsundet 5, 6512 Kristiansund, Norway",https://www.chinafeedonline.com.hk/sites/default/files/24_Norway_20210924.xls,,,,,
Epax Norway AS,Norway,,Møre og Romsdal,"Aarsæthervegen 17, 6006 Ålesund, Norway",https://utdanning.no/bedrift/971655526/,,,,,
Nutrishell AS,Norway,,,,https://www.nutrishell.com/,,,,,
Pelagia Protein AS,Norway,,Rogaland,"Varbergveien, 4371 Egersund, Norway",https://www.1881.no/fiskeforedling/fiskeforedling-rogaland/fiskeforedling-egersund/pelagia-protein-ryttervik_100977525S1/,,,,,
Cervonic Ltd.,Mauritius,Port Louis,Pamplemousses District,"P.O Box 131, M2, Port Louis, Mauritius",,,,,,
SeaGarden AS,Norway,,Rogaland,"Husøyvegen 278, 4262 Avaldsnes, Norway",https://seagarden-norway.com/about-us/,,,,,
PELAGIA HORDAFOR SALTHELLA,Norway,,Vestland,"Salthella, 5397 Bekkjarvik, Norway",https://mattilsynet-xp7prod.enonic.cloud/_/attachment/inline/f156ec21-0635-483f-89d7-aa284c68a2b1:49fe0c8dcec5363cd199eac19a6c26f6d46aa5f5/Approved_and_registered_feed_companies.pdf,,,,,
Mukka Proteins Limited,India,Mangaluru,Karnataka,"Mukka Corporate House,1st Cross, Nandigudda Rd, Attavar, Mangaluru, Karnataka 575001, India",https://www.mukkaproteins.com/about-mukka-proteins.php,,,,,
NatNov Bioscience Pvt. Ltd.,India,Balasore,Odisha,"FM College Rd, opposite of MAMA computer, Padhuan Pada, Balasore, Gopalgoan, Odisha 756001, India",,,,,,
NPM Aquatic Fish Links Private Limited,India,Vellatheri,Kerala,"Unnamed Road, Vellatheri, Kerala 680604, India",,,,,,
NPM Fish Meal and Oil Products,India,Ellainayakkanpatti,Tamil Nadu,"NH 138, Pottalurani, Ellainayakkanpatti, Tamil Nadu 628851, India",,,,,,
ECB Company SRL,Italy,Treviglio,Lombardia,"Via Calvenzano, 10, 24047 Treviglio BG, Italy",https://www.ersaf.lombardia.it/wp-content/uploads/2023/07/GUIDA_BIO_2013_WEB_13383_907.pdf,,,,,
Bioceval GmbH & Co KG,Denmark,Cuxhaven,Niedersachsen,"Neufelder Str. 44, 27472 Cuxhaven, Germany",https://www.afw-cuxhaven.de/assets/Uploads/Broschuere-Fischwirtschaft-Cuxhaven-2020.pdf,,,,,
Generale Conserve S.p.A.,Italy,Genova,Liguria,"Torre B, Corte dei Lambruschini, 16129 Genova GE, Italy",https://portaleacquisti.gruppoiren.it/documenti/elenco_banche_bloccate_in_sap.xlsx,,,,,
Om Sai Aqua,India,Santhavelur,Andhra Pradesh,"Sulluru, Ramalinga Puram, Santhavelur, Nellore, Andhra Pradesh 517640, India",,,,,,
Kauluan Sdn Bhd,Malaysia,Kota Kinabalu,Sabah,"F-2-15, BLOCK F, 2ND FLOOR LORONG INANAM KAPITAL 5, INANAM KAPITAL, MILE 6, Jalan Tuaran, 88450 Kota Kinabalu, Sabah, Malaysia",https://www.yelp.com/search?find_desc=Food&find_loc=Penampang%2C+Sabah,,,,,
QL Marine Products Sdn.Bhd.,Malaysia,Tuaran,Sabah,"P.O. Box 502, Kampung Bolong, Jalan Sulaman, 89208 Tuaran, Sabah, Malaysia",https://fishdept.sabah.gov.my/wp-content/uploads/2023/08/Buku-Direktori-Maklumat-Industri-Perikanan-2023.pdf,,,,,
Omega Fishing,Senegal,Dakar,Région de Dakar,"Site Alinsow Golf 57, Dakar, Senegal",,,,,,
Concentrados De Proteinas S.A.C,Peru,Chorrillos,Provincia de Lima,"Jr, Las Balsas N° 264, Chorrillos 15056, Peru",,,,,,
Pesquera Exalmar S.A.,Peru,Lima,Callao,"XVX8+HJF, Prolongacion Centenario, Lima 07046, Peru",,,,,,
Pesquera Hayduk S.A.,Peru,Végueta,Gobierno Regional de Lima,"Calle, Végueta 15157, Peru",https://consultasenlinea.produce.gob.pe/ConsultasEnLinea/consultas.web/plantas/generarReporteXsl,,,,,
King Pelagique,Morocco,Dakhla,Casablanca-Settat,"234, Z.l. Hay Assalam، Dakhla 73000, Morocco",https://frommoroccotouk.co.uk/wp-content/uploads/2021/06/MoroccoFoodex-CatalogueExportateurs-1.pdf,,,,,
Pesquera Hayduk S.A.,Peru,Végueta,Gobierno Regional de Lima,"Calle, Végueta 15157, Peru",https://consultasenlinea.produce.gob.pe/ConsultasEnLinea/consultas.web/plantas/generarReporteXsl,,,,,
Gümüşdoğa Su Ürünleri Üretim İhracat Ve İthalat A.Ş.Yem Fabrikası,Turkey,,Muğla,"Ekinanbarı, 48670 Milas/Muğla, Türkiye",https://gumusdoga.com.tr/,,,,,
Gürdal Yem Enerji Tarım Gıda Hayvancılık Sanayi ve Ticaret A.Ş. Yem Fabrikası,Turkey,,Kahramanmaraş,"Karacasu - Karaziyaret Mahallesi Fatih Sultan Mehmet Cad, Karacasu Karaziyaret, Gaziantep Yolu No:26/A, 46090 Merkez/Kahramanmaraş, Türkiye",,,,,,
İpek Yem ve Gıda San. Tic. A.Ş.-Yem Fabrikası,Turkey,,Gaziantep,"Aydınlar Mahallesi, Sanayi, 03044 Nolu Cd. No: 15, 27580 Şehitkamil/Gaziantep, Türkiye",https://dijital.gaib.org.tr/S_Uye_Listesi/?SIRKOD=606,,,,,
Omega Fishmeal And Oil Private Limited,India,Madhaliwadi,Maharashtra,"Omega Fish Meal & Oil Pvt Ltd, Madhaliwadi, Ratnagiri, Maharashtra 415639, India",https://www.justdial.com/Ratnagiri/Omega-Fishmeal-And-Oil-Pvt-Ltd-Madhaliwadi/9999P2352-2352-190117222817-B1W1_BZDET,,,,,
Pacific Marine Products,India,Cuncolim,Goa,"Plot No L-28, Industrial Estate, Salcete, Cuncolim, Goa 403703, India",https://unitedmarineproducts.com/,,,,,
Progress Frozen and Fish Sterilization,India,Porbandar,Gujarat,"GIDC, New Porbandar, Porbandar, Dharampur, Gujarat 360575, India",,,,,,
Quality foods,India,Mumbai,Maharashtra,"Fresh farsan shop in mumbai A/2 Bldg, Shop no 007, Lohiya Nagar, LIC Colony, Suresh Colony, Vile Parle West, Mumbai, Maharashtra 400056, India",https://www.ipindia.gov.in/writereaddata/Portal/IPOJournal/1_4829_1/CLASS_22_-_29.pdf,,,,,
Blueline Foods (India) Pvt. Ltd. Unit-IV,India,Ullal,Karnataka,"Mogaveera Higher Primary School, Beach Rd, Ullal, Karnataka 575020, India",https://ksei.karnataka.gov.in/uploads/media_to_upload1718781104.xlsx,,,,,
PESQUERA HAYDUK S.A.,Peru,Végueta,Gobierno Regional de Lima,"Calle, Végueta 15157, Peru",https://consultasenlinea.produce.gob.pe/ConsultasEnLinea/consultas.web/plantas/generarReporteXsl,,,,,
Pesquera Hayduk S.A.,Peru,Végueta,Gobierno Regional de Lima,"Calle, Végueta 15157, Peru",https://consultasenlinea.produce.gob.pe/ConsultasEnLinea/consultas.web/plantas/generarReporteXsl,,,,,
Pesquera Hayduk S.A.,Peru,Végueta,Gobierno Regional de Lima,"Calle, Végueta 15157, Peru",https://consultasenlinea.produce.gob.pe/ConsultasEnLinea/consultas.web/plantas/generarReporteXsl,,,,,
CORPORACION PESQUERA 1313 S.A.,Peru,Chimbote,Áncash,"VCRP+PQ5, Chimbote 02804, Peru",,,,,,
Independent Fisheries Limited,New Zealand,Christchurch,Canterbury,"4 Broad Street, Woolston, Christchurch 8025, New Zealand",https://www.indfish.co.nz/,,,,,
Setalg,France,Pleubian,Bretagne,"81 Rue de Pen Lan, 22610 Pleubian, France",https://www.pappers.fr/entreprise/ceva-centre-etude-valorisation-algues-335037107,,,,,
Los Glaciares S.A.,Chile,,Santa Cruz Province,"Santa Cruz Province, Argentina",https://whc.unesco.org/en/list/145/,,,,,
Pescasud SARLAU,Morocco,Aït Melloul,Souss-Massa,"8GC6+Q25, Aït Melloul 80000, Morocco",,,,,,
Shri Rozy Fish Meal and oil,India,Javar Village,Gujarat,"MH5C+M5, Javar Village, Gujarat 360579, India",,,,,,
Sogenco,Morocco,Safi,Marrakech-Safi,"Route Du Djorf El Youdi - Bp 56, Oued Tensift, Safi 46000, Morocco",,,,,,
Peruvian Sea Food S.A.,Peru,Paita,Piura,"WWGH+73W, Paita 20701, Peru",,,,,,
ASK Andaman Ltd,Myanmar,Myeik,Tanintharyi Region,"CJ76+V6M, Myeik, Myanmar (Burma)",,,,,,
"Marine Acary Production Co.,Ltd",Myanmar,Yegyawgyi,Ayeyarwady,"Tsp, Yegyawgyi, Myanmar (Burma)",,,,,,
Kiyak Kardesler-Black Sea Co.,Turkey,,Samsun,"Toybelen, Anadolu Bulvarı, 55050 İlkadım/Samsun, Türkiye",,,,,,
LTD MBM,Georgia,Rockmart,Georgia,"130 E Elm St #759, Rockmart, GA 30153, USA",,,,,,
Rybolovetskaya artel (kolkhoz) im. 50 let Oktyabrya,Russia,,,,https://seafoodexporussia.com/files/seafood_expo_russia_2023_eng.pdf,,,,,
Production Association Sakhalinrybaksoyuz LLC,Russia,Южно-Сахалинск,Сахалинская область,"office 11, Коммунистический пр., 18, Южно-Сахалинск, Сахалинская обл., Russia, 693010",,,,,,
JSC Turnif,Russia,Vladivostok,Primorskiy kray,"Ploshchad' Lugovaya, 52 Б, Vladivostok, Primorskiy kray, Russia, 690087",,,,,,
Hawkes Bay Protein Limited,New Zealand,Napier,Hawke's Bay,"Waitangi Road, Awatoto, Napier 4110, New Zealand",https://webgate.ec.europa.eu/tracesnt/directory/listing/establishment/publication/index#!/view/NZ/PROCESSING_PLANTS,,,,,
Pesquera Miguel Angel S.A.C.,Peru,,,,https://repositorio.ucv.edu.pe/handle/20.500.12692/39237,,,,,
Pesquera Natalia S.A.C.,Peru,Coishco,Ancash,"X9QG+H74, Coishco 02815, Peru",,,,,,
Pesquera Diamante S.A.,Peru,San Isidro,Provincia de Lima,"C. Amador Merino Reyna 307, San Isidro 15046, Peru",https://issuu.com/revistaindustriaalimentaria/docs/directorio_industria_alimentaria_2019__02-08-2019_,,,,,
M/S Balochistan Marines Products，Pakistan,Pakistan,,,,https://www.chinafeedonline.com.hk/sites/default/files/03_Pakistan_20220525.xls,,,,,
"Marksmen Aquatic Products, LLP",India,Vadakkukariseri,Tamil Nadu,"6/84, Vadakkukariseri, Tamil Nadu 628851, India",https://marksmenmarine.com/,,,,,
Tirupati Fish Meal,India,Tirupati,Andhra Pradesh,"D no,22, 4-61/1A, Karakambadi Rd, opp. ganagaram function hall, Mangalam, Tirupati, Andhra Pradesh 517507, India",https://www.justdial.com/Tirupati/Water-Purifier-Dealers-Aquafresh/nct-10553612,,,,,
Pak China Fish Meal,Pakistan,Lahore,Punjab,"near ali baba foods, Fatehgarh, Lahore, Punjab 54000, Pakistan",https://www.tiktok.com/@foodcon._/video/7351697989024435463,,,,,
Global Fish Trading Sarl,Western Sahara,,,,https://vest-sahara.s3.amazonaws.com/skvs/feature-images/File/243/5fc82120abf59_AbovetheLaw2020_web.pdf,,,,,
Laayoune Proteine S.A.R.L,Western Sahara,,,,https://vest-sahara.s3.amazonaws.com/skvs/feature-images/File/243/5fc82120abf59_AbovetheLaw2020_web.pdf,,,,,
Bransomar S.A.C.,Peru,Santa Anita,Provincia de Lima,"VX9H+GGG, C. Enrique del Horme, Santa Anita 15047, Peru",,,,,,
Pesquera Nemesis S.A.C.,Peru,Callao,Callao,"Prolongacion Centenario 2620, Callao 07046, Peru",,,,,,
Pesca Peru Tambo De Mora Norte S.A.,Peru,Tambo de Mora,,"GRH4+CWQ Muelle de, Tambo de Mora, Peru",,,,,,
Marine Industrial Corporation S.A.C. - Marincorp,Peru,San Martín de Porres,Provincia de Lima,"AV. ALFREDO MENDIOLA NRO. 6334 URB. SANTA LUISA (PARADERO SANTA LUISA) LIMA, San Martín de Porres 15304, Peru",,,,,,
K.B. Fish,Western Sahara,Marsa,,"Bp64, Marsa 70000",,,,,,
Aung Myat Phyo Int'l Fish Meal Plant,Myanmar,ဒိုက်ဦး,ပဲခူးတိုင်းဒေသကြီး,"Hpa Aung Wea Rd &, QMRF+83F, Myo Pat St, ဒိုက်ဦး, Myanmar (Burma)",,,,,,
Laayoune Proteine S.A.R.L,Western Sahara,,,,https://vest-sahara.s3.amazonaws.com/skvs/feature-images/File/243/5fc82120abf59_AbovetheLaw2020_web.pdf,,,,,
Tecnologias en Favor del Medio Ambiente S.A.C.,Peru,,,,https://cdn.www.gob.pe/uploads/document/file/2346588/RD%205250-2016-PRODUCE-DGS.pdf.pdf?v=1635486610,,,,,
Triada Foods S.A.C.,Peru,Chimbote,Áncash,"VCPR+PC5, Pescadores, Chimbote 02804, Peru",,,,,,
Pesquera Hillary E.I.R.L.,Peru,Chimbote,Áncash,"Pescadores 180, Chimbote 02804, Peru",,,,,,
Productora Amg S.A.C.,Peru,Chilca,Gobierno Regional de Lima,"Av Miramar 58, Chilca 15871, Peru",,,,,,
Pesquera Canhann S.A.C.,Peru,Paita,Piura,"WVC5+HMR, Paita 20701, Peru",,,,,,
Cnc S.A.C.,Peru,Piura,Piura,"Av., Tacna 910, Piura 20003, Peru",https://www.caqh.org/sites/default/files/solutions/proview/guide/domain-table.xls.xlsx,,,,,
Corporacion Industrial Milagros Del Mar S.A.,Peru,,,,https://ofac.treasury.gov/media/6791/download?inline,,,,,
Corporacion Pesquera Inca S.A.C.,Peru,Lima,Provincia de Lima,"Av. Manuel Olguín 325, Lima 15023, Peru",https://issuu.com/revistaindustriaalimentaria/docs/directorio_industria_alimentaria_2019__02-08-2019_,,,,,
Don Raul S.A.C.,Peru,La Esperanza,La Libertad,"WWWW+VFR, La Esperanza 13014, Peru",https://www.munlima.gob.pe/images/convocatoria-2020.pdf,,,,,
Empresa Pesquera Gamma S.A.,Peru,Paita,Piura,"WVC5+HMR, Paita 20701, Peru",,,,,,
Fishpro Nor Peru S.A.C.,Peru,Callao,Callao Region,"Callao 07046, Peru",,,,,,
Group Corporation Reye's S.A.C.,Peru,Callao,Callao,"Av. Nestor Gambetta 6693, Callao 07046, Peru",https://es.scribd.com/document/593558531/Padron-de-empresas-Alumnos-ultimo-1-09-2022,,,,,
Industrial Don Martin S.A.C.,Peru,Huacho,Gobierno Regional de Lima,"Av. Pedro N° 479, Huacho 15136, Peru",https://www.sunat.gob.pe/padronesnotificaciones/pricos/principalesContrib-PRICOS.xlsx,,,,,
Inversiones Regal S.A,Peru,Nuevo Chimbote,Ancash,"Nuevo Chimbote 02711, Peru",https://consultasenlinea.produce.gob.pe/ConsultasEnLinea/consultas.web/plantas/generarReporteXsl,,,,,
Htoo Htoo Toe International Company Limited,Myanmar,Yangon,Yangon Region,"69/71 Lan Thit St, Yangon 11131, Myanmar (Burma)",,,,,,
"JSC ""ASK"" aka Agency Selkhozkorma",Russia,Krasnoyarsk,Krasnoyarskiy kray,"Белорусская улица, 9, кв./оф. 65 Микуцкого улица, 12, офис 166, 2-Ya Khabarovskaya Ulitsa, 11, кв./оф. 26, Krasnoyarsk, Krasnoyarskiy kray, Russia, 660049",,,,,,
Natural Protein Technologies S.A.C.,Peru,Lima,Provincia de Lima,"X362+C7H, C. 31, Lima 15011, Peru",,,,,,
Pesquera Altair S.A.C.,Peru,,Piura,"Unnamed Road, 20701, 20701, Peru",,,,,,
Pesquera Maress S.A.C,Peru,Chilca,Lima Region,"G64V+X69, Chilca 15870, Peru",,,,,,
Pesquera Op7 & Bell S.A.C. / Op7 & Bell S.A.C.,Peru,Chimbote,Áncash,"subiste 1A, Calle 03 Mz B, Chimbote 02804, Peru",,,,,,
Pesquera Rubi S.A.,Peru,Lima,Provincia de Lima,"Jr. Sandia 290, Lima 15001, Peru",https://huggingface.co/guillermoruiz/bilma_CL/blame/main/vocab.txt,,,,,
Pesquera Z Y T S.A.C.,Peru,Barranca,Lima Region,"Barranca 15169, Peru",https://www.viabcp.com/pagos-agentebcp,,,,,
Procesadora De Productos Marinos SA,Peru,San Borja,Provincia de Lima,"Pje. Franco 150, San Borja 15036, Peru",https://www.mef.gob.pe/contenidos/presu_publ/sectr_publ/presu_2006/ActProy2006.pdf,,,,,
San Fernando S.A.,Peru,,Ica,"11230, Peru",https://www.laencontre.com.pe/venta/casas/ica/p_3,,,,,
San Fernando S.A.,Peru,,Ica,"11230, Peru",https://www.laencontre.com.pe/venta/casas/ica/p_3,,,,,
Solmar Empresa Pesquera S.A.,Peru,Miraflores,Provincia de Lima,"Av Grau 300, Miraflores 15074, Peru",https://www.treasury.gov/ofac/downloads/add.csv,,,,,
Soraya S.A.C.,Peru,Lima,Lima Region,"Q2PC+F3F, Lima 15058, Peru",,,,,,
Tecnológica de Alimentos S.A. (TASA),Peru,Lima,Provincia de Lima,"Vittore Carpaccio 216-296, Lima 15036, Peru",,,,,,
Tecnológica de Alimentos S.A. (TASA),Peru,Lima,Provincia de Lima,"Vittore Carpaccio 216-296, Lima 15036, Peru",,,,,,
Tecnológica de Alimentos S.A. (TASA),Peru,Lima,Provincia de Lima,"Vittore Carpaccio 216-296, Lima 15036, Peru",,,,,,
Transmarina Del Peru Sociedad Anonima Cerrada - Transmarina Del Peru S.A.C.,Peru,Paracas,Ica,"Via a Paracas, Paracas 11550, Peru",https://cdn.www.gob.pe/uploads/document/file/3517814/Empresas%20seleccionadas%20en%20la%20Encuesta%20Econ%C3%B3mica%20Anual%202021.pdf,,,,,
"LLC ""Kamchattralflot""",Russia,Petropavlovsk-Kamchatskiy,Kamchatka Krai,"Prospekt Tsiolkovskogo, 7/2, Petropavlovsk-Kamchatskiy, Kamchatka Krai, Russia, 683000",https://www.stjornarradid.is/media/utanrikisraduneyti-media/media/vidskiptathjonustan/skyrsla_fish_industry_in_russia_i_eurofish.pdf,,,,,
NordFeed LLC,Russia,Sankt-Peterburg,Sankt-Peterburg,"Instrumental'naya Ulitsa, 3, Sankt-Peterburg, Russia, 195112",,,,,,
"[OLD NAME: Tymlatsky Rybokombinat Co., Ltd. Fish Factory] Tymlatsky Fish Factory",Russia,Yuzhno-Kurilsk,,"17 Заводская ул., Yuzhno-Kurilsk",,,,,,
Vityaz-Avto Co Ltd. Fish-Processing Work-Shop,Russia,Nikolayevka,Kamchatka Krai,"мкр. Энтузиастов, стр.1, Nikolayevka, Kamchatka Krai, Russia, 684032",,,,,,
Triarc S.A.,Peru,,,,https://www.tc.gob.pe/jurisprudencia/2011/03075-2011-AA%20Resolucion.html,,,,,
JSC Murmansk Region Fleet,Russia,Murmansk,Murmanskaya oblast',"Ulitsa Shmidta, 43, Murmansk, Murmanskaya oblast', Russia, 183038",https://www.emis.com/php/company-profile/RU/Murmansk_Trawl_Fleet_PAO__%D0%9C%D1%83%D1%80%D0%BC%D0%B0%D0%BD%D1%81%D0%BA%D0%B8%D0%B9_%D0%A2%D1%80%D0%B0%D0%BB%D0%BE%D0%B2%D1%8B%D0%B9_%D0%A4%D0%BB%D0%BE%D1%82_%D0%9F%D0%90%D0%9E__en_1517131.html,,,,,
PJSC Murmansk Trawling Fleet,Russia,Murmansk,Murmanskaya oblast',"Ulitsa Shmidta, 43, Murmansk, Murmanskaya oblast', Russia, 183038",https://www.emis.com/php/company-profile/RU/Murmansk_Trawl_Fleet_PAO__%D0%9C%D1%83%D1%80%D0%BC%D0%B0%D0%BD%D1%81%D0%BA%D0%B8%D0%B9_%D0%A2%D1%80%D0%B0%D0%BB%D0%BE%D0%B2%D1%8B%D0%B9_%D0%A4%D0%BB%D0%BE%D1%82_%D0%9F%D0%90%D0%9E__en_1517131.html,,,,,
JSC Akros,Russia,,,,http://www.old.norebo.ru/en/nash-flot/akros/,,,,,
JSC Akros,Russia,,,,http://www.old.norebo.ru/en/nash-flot/akros/,,,,,
LLC Roliz,Russia,,,,http://www.old.norebo.ru/en/nash-flot/roliz/,,,,,
LLC Roliz,Russia,,,,http://www.old.norebo.ru/en/nash-flot/roliz/,,,,,
JSC Akros-3,Russia,,,,http://www.old.norebo.ru/en/nash-flot/akros/,,,,,
LLC Vostokrybprom,Russia,Vladivostok,Primorskiy kray,"Prospekt Krasnogo Znameni, 42, Vladivostok, Primorskiy kray, Russia, 690106",https://openknowledge.fao.org/server/api/core/bitstreams/381a4eb8-1b0a-4bfe-a57f-ad2604b8b8f8/content,,,,,
OOO RK Luntos,Russia,Petropavlovsk-Kamchatskiy,Kamchatka Krai,"Ulitsa Leningradskaya, Д 61, Petropavlovsk-Kamchatskiy, Kamchatka Krai, Russia, 683000",,,,,,
Mercury Co Ltd,Russia,Moskva,Moskva,"Kutuzovsky Ave, 31, Moskva, Russia, 121165",https://en.wikipedia.org/wiki/Moscow_International_Business_Center,,,,,
Interrybflot,Russia,,,,https://interfishmarket.com/en/company.aspx?id=14738,,,,,
JSC North-Kurilsk Base of Seiner Fleet (NBSF),Russia,,,,https://www.new-ships.com/groupowner-11286763-JSC_North-Kurilsk_Base_of_Seiner_Fleet_NBSF.html,,,,,
JSC Ostrov Sakhalin,Russia,,Sakhalin Oblast,"Sakhalin, Sakhalin Oblast, Russia",https://en.wikipedia.org/wiki/Sakhalin,,,,,
Bluff Proteins Limited,New Zealand,Bluff,Southland,"284 Foreshore Road, Bluff 9814, New Zealand",https://icc.govt.nz/wp-content/uploads/2021/05/2021-05-11-Extraordinary-Performance-Policy-and-Partnerships-Agenda-part-1.pdf,,,,,
"Alyeska Seafoods, Inc.",United States of America,Unalaska,Alaska,"551 W Broadway Ave, Unalaska, AK 99685, USA",https://www.ci.unalaska.ak.us/business-directory/alyeska-seafoods-inc,,,,,
"Hai An Co., Ltd",Vietnam,,Hải Phòng,"R.817B, 8th Flr., No. 4&5, 20A Plot, Đ. Lê Hồng Phong, Đông Khê, Ngô Quyền, Hải Phòng 40000, Vietnam",https://ipvietnam.gov.vn/documents/20182/1730768/H%C3%A0+N%E1%BB%99i_+%C4%90%C6%A1n+NH%2C+SC%2C+KD.xlsx/7e8bef30-30c6-4467-9110-a075165ddbb7,,,,,
Food Joint Stock Company,Vietnam,thành phố Bến Tre,Bến Tre,"214 Nguyễn Đình Chiểu, Phường 8, Bến Tre, Vietnam",https://vnsw.gov.vn/HuongDan/TempCertificate/Korea.xlsx,,,,,
Promarina SA,Panama,Puerto Caimito,Panamá Oeste Province,"V7CQ+FHW, Puerto Caimito, Panamá Oeste Province, Panama",,,,,,
Unknown,Peru,,,,https://explorepartsunknown.com/destination/peru/,,,,,
Pacific Deep Frozen S.A.,Peru,,Áncash,"Caleta Culebras, 02655, Peru",,,,,,
Nam Hoa Y Factory - Van Don Company Limited,Vietnam,Thành phố Nam Định,Nam Định,"Số 248 Đ. Giải Phóng, Mỹ Xá, Nam Định, Vietnam",https://www.akingump.com/a/web/oZJHjVN4KkqRS1PCCxBMGP/8nrKXN/145973245_attachment-2-frozen-warmwater-shrimp-foreign-producers.pdf,,,,,
Mien Thang Sa Dec Company Ltd.,Vietnam,Sa Đéc,Dong Thap,"8QG2+9W9, Tân Khánh Đông, Sa Đéc Province, Dong Thap, Vietnam",,,,,,
Minh Thang Sa Dec Company Limited,Vietnam,Sa Đéc,Dong Thap,"8QG2+9W9, Tân Khánh Đông, Sa Đéc Province, Dong Thap, Vietnam",,,,,,
Berg LipidTech AS,Norway,,Møre og Romsdal,"Sjukenesstranda 62, 6037 Veibust, Norway",,,,,,
Seafrost S.A.C.,Peru,Paita,Piura,"WW99+5J, Paita 20701, Peru",,,,,,
Hordafor AS,Norway,,Vestland,"Thormøhlens Gate 53C, 5006 Bergen, Norway",https://www.annualreports.com/HostedData/AnnualReportArchive/l/leroy-seafood-group-asa_2021.pdf,,,,,
Karmsund Protein AS,Norway,,Rogaland,"Husøyvegen 141, 4262 Avaldsnes, Norway",https://www.1881.no/fiskeforedling/fiskeforedling-rogaland/fiskeforedling-avaldsnes/karmsund-protein-as_105379811S0/,,,,,
MBP Bio Production AS,Norway,,Østfold,"Greåkerveien 127, 1718 Greåker, Norway",https://www.1881.no/kjemikalier-og-kjemiske-varer-produksjon/kjemikalier-og-kjemiske-varer-produksjon-oestfold/kjemikalier-og-kjemiske-varer-produksjon-greaaker/mbp-bio-production-as_101115145S1/,,,,,
Compania Pesquera del Pacifico Centro S.A.,Peru,Chimbote,Áncash,"B1, Chimbote 02804, Peru",https://repositorio.uns.edu.pe/bitstream/handle/20.500.14278/3985/52471.pdf?sequence=1&isAllowed=y,,,,,
Alimentos Pesqueros SpA,Chile,,Región Metropolitana,"galpón 5 - Av. Fermín Vivaceta 2598, 8390050 Independencia, Región Metropolitana, Chile",,,,,,
Industria Procesadora de Aceites y Grasas S.A.,Chile,Concepción,Bío Bío,"Rengo 175, 4070274 Concepción, Bío Bío, Chile",,,,,,
Touba Protein Marine,Senegal,Touba,Diourbel Region,"V3RW+4Q3, R30, Touba, Senegal",,,,,,
Foodcorp Chile S.A.,Chile,Coronel,Bío Bío,"Pedro Aguirre Cerda 995, 4200570 Coronel, Bío Bío, Chile",https://www.waze.com/es/live-map/directions/cl/bio-bio/coronel/foodcorp-chile-s.a.?to=place.ChIJ2a-ufRXPYpYRdk0EW8vCsso,,,,,
Trihung Producing Trading Im-Export Company Limited,Vietnam,,Hồ Chí Minh,"Số 94 Đường Đ. Gò Công, Phường 13, Quận 5, Hồ Chí Minh, Vietnam",https://www.scribd.com/document/715507907/dat-ngay-16-4-Hang-Xu%E1%BA%A5t,,,,,
Edayre,Mauritania,Jreida,Nouakchott-Ouest,"Jreida, Mauritania",,,,,,
Hong Dong Farine et Huile,Mauritania,,,,https://www.cffacape.org/publications-blog/transparency-mauritania-improves-its-score-but-is-still-far-from-the-goal,,,,,
Sao Mai An Giang; Travel Investment and Seafood Development Corp. (Trisedco),Vietnam,,,,https://saomaigroup.com/en,,,,,
Epesca Pisco S.A.C.,Peru,Pisco,Ica,"6Q55+33Q, Pisco 11550, Peru",,,,,,
Sao Mai An Giang; Travel Investment and Seafood Development Corp. (Trisedco),Vietnam,,,,https://saomaigroup.com/en,,,,,
Sao Mai An Giang; Travel Investment and Seafood Development Corp. (Trisedco),Vietnam,Thành phố Long Xuyên,An Giang,"326 Đ. Hùng Vương, Mỹ Long, Thành phố Long Xuyên, An Giang 90106, Vietnam",,,,,,
Moumina Fishing,Mauritania,,,,https://beta.mr/files/appls/507.docx,,,,,
Sahara Peche,Mauritania,Nouakchott,Nouakchott Sud,"32FR+CP6 Port de pêche à Nouakchott 471, Nouakchott, Mauritania",,,,,,
"ThienPhat Manufacturing and Trading Co., Ltd",Vietnam,,Hà Nội,"56 P. Nhân Hòa, Nhân Chính, Thanh Xuân, Hà Nội, Vietnam",https://vsa.com.vn/gioi-thieu/danh-sach-hoi-vien/,,,,,
"RONG CHANG SARLU, Republic of Congo(Brazzaville)",Republic of Congo,Brazzaville,Brazzaville,"Q78W+QPP, Brazzaville, Republic of the Congo",,,,,,
Winterisation Mauritania SARL,Mauritania,Nouadhibou,,"20.906096, -17.043138, Nouadhibou, Mauritania",,,,,,
Comapeche,Mauritania,Nouadhibou,,"Tiarka rue n:2, Nouadhibou, Mauritania",,,,,,
"Suchato Fishmeal
Factory Part., Ltd.",Thailand,ตำบลบางพลีใหญ่,Chang Wat Samut Prakan,"225 หมู่12 ถนนเทพารักษ์ กม.13 ตำบลบางพลีใหญ่ Amphoe Bang Phli, Chang Wat Samut Prakan 10540, Thailand",,,,,,
Pattani Fishmeal (1988) Company Limited,Thailand,Tambon Bana,Chang Wat Pattani,"Unnamed Road V7W8+R6X, Tambon Bana, Amphoe Mueang Pattani, Chang Wat Pattani 94000, Thailand",,,,,,
Mauritania Sea Food Solube,Mauritania,Nouadhibou,Dakhlet Nouadhibou,"WX92+5MH, Nouadhibou, Mauritania",,,,,,
"Phatanakarn Pramong Pattany Co., Ltd.",Thailand,,Krung Thep Maha Nakhon,"22, 38 Soi Liap Khlong Song 23, Khwaeng Sam Wa Tawan Tok, Khet Khlong Sam Wa, Krung Thep Maha Nakhon 10510, Thailand",,,,,,
"Kasemkit Pattani Fishmeal Co., Ltd.",Thailand,Tambon Na Di,Chang Wat Samut Sakhon,"1 หมู่ที่ 4 Soi Ban Plai Khlong Kharu, Tambon Na Di, Amphoe Mueang Samut Sakhon, Chang Wat Samut Sakhon 74000, Thailand",,,,,,
Thien Quynh Khanh Hoa Sole Member Limited Liability Company,Vietnam,,Phú Yên,"ĐT 645 Tx, Phước Bình Bắc, Đông Hòa, Phú Yên, Vietnam",https://vnsw.gov.vn/HuongDan/TempCertificate/Korea.xlsx,,,,,
Ocean Proteine,Mauritania,Nouadhibou,Dakhlet Nouadhibou,"WX92+5MH, Nouadhibou, Mauritania",,,,,,
"Southern Fishmeal Factory (1969) Co., Ltd.",Thailand,ตำบลบางพลีใหญ่,Chang Wat Samut Prakan,"225 หมู่12 ถนนเทพารักษ์ กม.13 ตำบลบางพลีใหญ่ Amphoe Bang Phli, Chang Wat Samut Prakan 10540, Thailand",,,,,,
"Yangon Fishery Development Co.,Ltd",Myanmar,ရန်ကုန်,ရန်ကုန်တိုင်းဒေသကြီး,"Yangon Fishery Development Co,Ltd ( Fish Meal Factory, No.99/B, Zone (3, ရန်ကုန်, Myanmar (Burma)",https://www.researchgate.net/profile/Maung-Myoe/publication/272092747_Building_the_Tatmadaw/links/54dac5d50cf2ba88a68de69a/Building-the-Tatmadaw.pdf,,,,,
Jana Fish Industries Limited,Thailand,,Krung Thep Maha Nakhon,"289 Thanon Ratchadaphisek, Khwaeng Bukkhalo, Khet Thon Buri, Krung Thep Maha Nakhon 10600, Thailand",,,,,,
"Vantage Co.,Ltd",Myanmar,Myeik,Tanintharyi Region,"CJ85+XHG, Myeik, Myanmar (Burma)",,,,,,
"Samila Fish Meal Co., Ltd.",Thailand,,Chang Wat Songkhla,"103 Thanon Samchai, Tambon Hat Yai, Amphoe Hat Yai, Chang Wat Songkhla 90110, Thailand",https://wanderlog.com/list/geoCategory/198227/where-to-eat-best-restaurants-in-hat-yai,,,,,
"Srinakorn Fishmeal Factory Part., Ltd.",Thailand,,Chang Wat Songkhla,"87 Nasan, Tambon Bo Yang, Amphoe Mueang Songkhla, Chang Wat Songkhla 90000, Thailand",,,,,,
Aquarius AS,Norway,,Møre og Romsdal,"Kjøpmannsgata 37, 6005 Ålesund, Norway",https://www.1881.no/tlf/aquarius-invest-as_101148334S0/,,,,,
"Songkhla Marine Products Co., Ltd.",Thailand,,Chang Wat Songkhla,"353/4 Nakhonnok St, Tambon Bo Yang, Amphoe Mueang Songkhla, Chang Wat Songkhla 90000, Thailand",,,,,,
BASF AS,United Kingdom,,England,"21st Floor, 110 Bishopsgate, City of London, London EC2N 4AY, UK",https://assets.publishing.service.gov.uk/media/5a7cb05a40f0b65b3de0a8e1/RFI_6297_document.pdf,,,,,
Nordlaks Produkter AS avd Stokmarknes.,Norway,,Nordland,"Industriveien 14, 8450 Stokmarknes, Norway",https://www.nordlaks.com/app/uploads/2024/08/Nordlaks_Sustainability_Report-2023_web.pdf,,,,,
"Patthana Charoen Powder Fish Factory Part., Ltd.",Thailand,,Krung Thep Maha Nakhon,"11/12-14 Ratchadaphisek Rd, Khwaeng Chong Nonsi, Khet Yan Nawa, Krung Thep Maha Nakhon 10120, Thailand",,,,,,
"Saengcharoen Wattana Fishery Co., Ltd.",Thailand,Tambon Khao Rup Chang,Chang Wat Songkhla,"หมู่ที่ 7 68, Tambon Khao Rup Chang, Amphoe Mueang Songkhla, Chang Wat Songkhla 90000, Thailand",,,,,,
BVP Marine Product Co. Ltd.,Thailand,ตำบล เขารูปช้าง,สงขลา,"99, ตำบล เขารูปช้าง อำเภอเมืองสงขลา สงขลา 90000, Thailand",,,,,,
"Kanthaksin Fish Powder Industrial Co., Ltd.",Thailand,,Krung Thep Maha Nakhon,"627, 629 Soi Wanit 1, Thailand, Khet Samphanthawong, Krung Thep Maha Nakhon 10100, Thailand",,,,,,
"Paechae Songkhla Co., Ltd.",Thailand,Tambon Nam Noi,Chang Wat Songkhla,"111 ม.9 Soi Thawi Thai, Tambon Nam Noi, Amphoe Hat Yai, Chang Wat Songkhla 90110, Thailand",https://www.hotfrog.co.th/,,,,,
J D P COMPANY LIMITED,Thailand,Tambon Kantang,Chang Wat Trang,"3 ถนนค่ายพิทักษ์ Tambon Kantang, Amphoe Kantang, Chang Wat Trang 92110, Thailand",https://vernacbef2016.files.wordpress.com/2016/06/vernac-bef-2016.pdf,,,,,
PACIFIC FISHMEAL INDUSTRIAL COMPANY LIMITED,Thailand,,Krung Thep Maha Nakhon,"18/32 Soi Ari 2, Khwaeng Samsen Nai, Khet Phaya Thai, Krung Thep Maha Nakhon 10400, Thailand",,,,,,
"J. D. P. Co., Ltd.",Thailand,Tambon Kantang,Chang Wat Trang,"3 ถนนค่ายพิทักษ์ Tambon Kantang, Amphoe Kantang, Chang Wat Trang 92110, Thailand",https://vernacbef2016.files.wordpress.com/2016/06/vernac-bef-2016.pdf,,,,,
"Phuket Fishmeal Industrial Co.,ltd",Thailand,Tambon Khao Rup Chang,Chang Wat Songkhla,"27/4 หมู่7ถ.เก้าเส้ง-จะนะ, ต.เขารูปช้าง อ.เมือง สงขลา, 90000 Tambon Khao Rup Chang, Amphoe Mueang Songkhla, Chang Wat Songkhla 90000, Thailand",,,,,,
"Sinphiboonchai Fishmill Part., Ltd.",Thailand,ตำบล รัษฎา,ภูเก็ต,"62/1, Moo 7, Tha Ruea Mai Road, Tambon Rachada, Amphoe Muang Phuket, Phuket, 83000, ตำบล รัษฎา อำเภอเมืองภูเก็ต ภูเก็ต 83000, Thailand",,,,,,
Choke Udom Pattana Fishmeal Limited Partnership,Thailand,,Krung Thep Maha Nakhon,"254 Phaya Thai Rd, Khwaeng Wang Mai, Pathum Wan, Krung Thep Maha Nakhon 10330, Thailand",,,,,,
"Mit Khanom Fish Meal (1997) Co., Ltd.",Thailand,ตำบล ท้องเนียน,นครศรีธรรมราช,"102, ตำบล ท้องเนียน อำเภอ ขนอม นครศรีธรรมราช 80210, Thailand",,,,,,
"Witchu Industry Co., Ltd.",Thailand,Tambon Bang Phli Yai,Chang Wat Samut Prakan,"90/9 หมู่ 7 ถนน บางพลี-กิ่งแก้ว Tambon Bang Phli Yai, Amphoe Bang Phli, Chang Wat Samut Prakan 10540, Thailand",,,,,,
"Sichon Fishmeal Factory Part., Ltd.",Thailand,Tambon Pho Thong,Chang Wat Nakhon Si Thammarat,"323, T, 6, Tambon Pho Thong, Amphoe Tha Sala, Chang Wat Nakhon Si Thammarat 80160, Thailand",,,,,,
"Chaweng Watana Fishmeal Factory Part., Ltd.",Thailand,,,,https://www.dataforthai.com/company/0803517000186/,,,,,
"Chok Anavin Fishery Co., Ltd.",Thailand,,Krung Thep Maha Nakhon,"627, 629 Soi Wanit 1, Thailand, Khet Samphanthawong, Krung Thep Maha Nakhon 10100, Thailand",,,,,,
"Panichprapon Co., Ltd.",Thailand,,Krung Thep Maha Nakhon,"2521/58 บิสทาวน์ลาดพร้าว คลองเจ้าคุณสิงห์ วังทองหลาง Krung Thep Maha Nakhon 10310, Thailand",,,,,,
Kantang KSC Part. Ltd.,Thailand,ตำบล ปากแรต,ราชบุรี,"63-64 Moo 15, Songpol Rd.,, Pakrat, Ban Pong,Ratchaburi, 70110, ตำบล ปากแรต อำเภอบ้านโป่ง ราชบุรี 70110, Thailand",,,,,,
Charoen Kijjakarn Ranong Fish Meal Factory Part. Ltd.,Thailand,Tambon Bang Rin,Chang Wat Ranong,"27/13 27/13 ระนอง Tambon Bang Rin, Amphoe Mueang Ranong, Chang Wat Ranong 85000, Thailand",,,,,,
"Siamchai Pokpan Co., Ltd",Thailand,,Krung Thep Maha Nakhon,"619,621 623 Thanon Rama III, Khwaeng Bang Phong Phang, Khet Yan Nawa, Krung Thep Maha Nakhon 10120, Thailand",,,,,,
"Mahatasinwaree Co., Ltd.",Thailand,ตำบลสวนหลวง,Chang Wat Samut Sakhon,"76/3 หมู่9 ซอยสวนหลวง ถนนเศรษฐกิจ1 ตำบลสวนหลวง Amphoe Krathum Baen, Chang Wat Samut Sakhon 74110, Thailand",,,,,,
"Saha Pramong Fish Meal Ranong Co., Ltd.",Thailand,Tambon Pak Nam,Chang Wat Ranong,"หมู่ ที่ 5 155/2 Tambon Pak Nam, Amphoe Mueang Ranong, Chang Wat Ranong 85000, Thailand",,,,,,
"Teppama Fishmeal Co., Ltd",Thailand,,Krung Thep Maha Nakhon,"99/1 Industrial Ring Rd, Khwaeng Chong Nonsi, Khet Yan Nawa, Krung Thep Maha Nakhon 10120, Thailand",,,,,,
"Suk Ruang Kaew Fish Meal (2004) Co., Ltd.",Thailand,,,,http://suk-ruang-kaeo.com/,,,,,
Ranong Food Products Part. Ltd.,Thailand,เมือง,Chang Wat Ranong,"260 / 44 หมู่ 6 ตำบล บางริ้น เมือง Amphoe Mueang Ranong, Chang Wat Ranong 85000, Thailand",https://spd.moph.go.th/wp-content/uploads/2023/07/Report-Health-Resource-65.pdf,,,,,
"Krungdhep Mahakij Co., Ltd.",Thailand,,Krung Thep Maha Nakhon,"445 ซอย สุขสวัสดิ 30 แยก 10 Khwaeng Bang Pakok, Khet Rat Burana, Krung Thep Maha Nakhon 10140, Thailand",,,,,,
Teppama Fishmeal Company Limited,Thailand,ตำบลบางพลีใหญ่,Chang Wat Samut Prakan,"225 หมู่12 ถนนเทพารักษ์ กม.13 ตำบลบางพลีใหญ่ Amphoe Bang Phli, Chang Wat Samut Prakan 10540, Thailand",,,,,,
"Tungka Fishmeal
Part.,Ltd.",Thailand,Tambon Mapyangphon,Chang Wat Rayong,"หมู่ที่ 4 นิคมอุตสาหกรรมอมตะ ซิตี้ 7/120 ถนนสามสามหนึ่ง Tambon Mapyangphon, Amphoe Pluak Daeng, Chang Wat Rayong 21140, Thailand",,,,,,
"Siam Fishmeal Factory Co., Ltd. (Part. Ltd.)",Thailand,,Krung Thep Maha Nakhon,"ชั้น 6 อาคาร ทีซีซี เลขที่ 290-290/1 Surawong Rd, Khwaeng Si Phraya, Khet Bang Rak, Krung Thep Maha Nakhon 10500, Thailand",,,,,,
"Klong Yai Fishmeal Co., Ltd.",Thailand,,Krung Thep Maha Nakhon,"หมู่บ้าน DISTRICT เอกมัย-รามอินทรา เลขที่ 77/8 Soi 2, Khwaeng Nuanchan, Khet Bueng Kum, Krung Thep Maha Nakhon 10230, Thailand",,,,,,
"Wasan Samut Fish Meal Part., Ltd.",Thailand,,Krung Thep Maha Nakhon,"216 Rama II Frontage Road, Khwaeng Samae Dam, Khet Bang Khun Thian, Krung Thep Maha Nakhon 10150, Thailand",,,,,,
"Saengcharoen Products part., Ltd.",Thailand,,Krung Thep Maha Nakhon,"69/2 Soi Bang Na-Trat 32, Khwaeng Bang Na, Khet Bang Na, Krung Thep Maha Nakhon 10260, Thailand",,,,,,
"San-nguansin Fish Meal Part., Ltd.",Thailand,,Bangkok,"P9W2+MJW, Thawi Watthana, Bangkok 10170, Thailand",,,,,,
"Ban Klaeng Industry Part., Ltd.",Thailand,Tambon Ban Chang,Chang Wat Rayong,"38/66 Tambon Ban Chang, Amphoe Ban Chang, Chang Wat Rayong 21130, Thailand",,,,,,
"Eastern Fishmeal Co.,Ltd.",Thailand,,Krung Thep Maha Nakhon,"9, 337 หมู่ 8 Phahon Yothin Rd, อนุสาวรีย์ Khet Bang Khen, Krung Thep Maha Nakhon 10220, Thailand",,,,,,
"ThuyHai Seafood Processing Co., Lt",Vietnam,,Hà Nội,"150, 218 QL21B, Phú Lương, Hà Đông, Hà Nội, Vietnam",,,,,,
Tak Chua Brothers Sdn Bhd,Malaysia,Hutan Melintang,Perak,"Lot 120, Jalan Tepi Sungai, 36400, Hutan Melintang, Perak, 36400 Hutan Melintang, Perak, Malaysia",https://hpmember.gbs2u.com/,,,,,
Mar Fusion S.A.,Chile,Coronel,Bío Bío,"Calle D, Manzana D, Sitio 26 Parque Industrial - Escuadrón 2, Coronel, Bío Bío, Chile",https://www.sernapesca.cl/app/uploads/2023/11/subproductos_no_consumo_humano_20220203.pdf,,,,,
Trio SpA,Chile,Curico,Maule,"Curico, Romeral, Maule, Chile","https://cl.indeed.com/q-electricos-l-curic%C3%B3,-maule-empleos.html",,,,,
Química Industrial SPES S.A.,Chile,Conchalí,Región Metropolitana,"Av. Pdte. Eduardo Frei Montalva 5299, 8550633 Conchalí, Región Metropolitana, Chile",,,,,,
"Panus Feed Mill Co., Ltd.",Thailand,,Krung Thep Maha Nakhon,"Soi Phayathai, Khwaeng Thanon Phetchaburi, Khet Ratchathewi, Krung Thep Maha Nakhon 10400, Thailand",https://issuu.com/access-europe/docs/thailand_green_handbook,,,,,
"Fishmeal Marketing Development Co., Ltd.",Thailand,,Krung Thep Maha Nakhon,"14 Soi Nawamin 54, Khwaeng Khlong Kum, Khet Bueng Kum, Krung Thep Maha Nakhon 10240, Thailand",https://issuu.com/access-europe/docs/thailand_green_handbook,,,,,
"Taweelarp Fish Meal Part., Ltd.",Thailand,,Krung Thep Maha Nakhon,"72 Soi Wora Phong, Khwaeng Ban Phan Thom, Khet Phra Nakhon, Krung Thep Maha Nakhon 10200, Thailand",,,,,,
SIAM PROTEINS COMPANY LIMITED,Thailand,Tambon Sam Rong Nua,Chang Wat Samut Prakan,"3056 soi santikam 8 Tambon Sam Rong Nua, Amphoe Mueang Samut Prakan, Chang Wat Samut Prakan 10270, Thailand",,,,,,
"Klongdan Fish Meal (2530) Co., Ltd.",Thailand,,,,https://www.matchlink.asia/th/business/page/Thailand/SAMUTPRAKAN/68315-klongdan-fish-meal-2530-co-ltd.html,,,,,
"SIAM PRECIOUS FEEDS CO., LTD.",Thailand,Tambon Bang Tho Rat,Chang Wat Samut Sakhon,"5 7, Tambon Bang Tho Rat, Amphoe Mueang Samut Sakhon, Chang Wat Samut Sakhon 74000, Thailand",https://unesdoc.unesco.org/ark:/48223/pf0000058620,,,,,
"Aquabest Group Co., Ltd.",Thailand,ตำบล บางเมืองใหม่,Samut Prakan,"80/1393 Moo 5, Mooban Thippawan 1, Theparak Rd., Muang, Samutprakarn, ตำบล บางเมืองใหม่ Theparak, Samut Prakan 10270, Thailand",,,,,,
"Rungsin Pokphand Co., Ltd.",Thailand,Pak Chan,Phra Nakhon Si Ayutthaya,"CJQ4+C7J, Pak Chan, Nakhon Luang District, Phra Nakhon Si Ayutthaya 13260, Thailand",,,,,,
"T.C. Union Agrotech Co., Ltd",Thailand,Tambon Bang Kachao,Chang Wat Samut Sakhon,"68 Rama II Rd, Tambon Bang Kachao, Amphoe Mueang Samut Sakhon, Chang Wat Samut Sakhon 10150, Thailand",,,,,,
Sanki Shiryo Kogyo Ltd.,Japan,Minoh,Osaka,"3-chōme-2-45 Shinmachinishi, Minoh, Osaka 563-0255, Japan",,,,,,
"Starfish Co.,Ltd.",Thailand,Tambon Bang Tho Rat,Chang Wat Samut Sakhon,"79/8 ถนนหมู่ที่ 3 ซอย 2 Tambon Bang Tho Rat, Amphoe Mueang Samut Sakhon, Chang Wat Samut Sakhon 74000, Thailand",,,,,,
Siirisaengarumpee Company Limited,Thailand,,Krung Thep Maha Nakhon,"39 Soi Ram Intra16, Khwaeng Tha Raeng, Khet Bang Khen, Krung Thep Maha Nakhon 10220, Thailand",,,,,,
"Piyo Bhokabhan Co.,Ltd",Thailand,Tambon Bang Kachao,Chang Wat Samut Sakhon,"Wat Pak Bo Road, Tambon Bang Kachao, Amphoe Mueang Samut Sakhon, Chang Wat Samut Sakhon 74000, Thailand",,,,,,
"Thachin Fishmill Industrial Co., Ltd.",Thailand,ตำบล บางกุ้ง,ตรัง,"Ban109, หมู่ที่ 5, ตำบล บางกุ้ง อำเภอ ห้วยยอด ตรัง 92210, Thailand",,,,,,
Anusorn Mahachai Surimi,Thailand,ตำบล ท่าทราย,สมุทรสาคร,"59/7, ตำบล ท่าทราย อำเภอเมืองสมุทรสาคร สมุทรสาคร 74000, Thailand",https://www.dataforthai.com/company/0745546001937/,,,,,
"Patthriya Thanit Co., Ltd.",Thailand,,Krung Thep Maha Nakhon,"เลขที่ 26 Soi Bang Na-Trat 25, Bang Na Nuea, Khet Bang Na, Krung Thep Maha Nakhon 10260, Thailand",,,,,,
Apitoon Fish Meal Company Limited,Thailand,Tambon Mapyangphon,Chang Wat Rayong,"หมู่ที่ 4 นิคมอุตสาหกรรมอมตะ ซิตี้ 7/120 ถนนสามสามหนึ่ง Tambon Mapyangphon, Amphoe Pluak Daeng, Chang Wat Rayong 21140, Thailand",,,,,,
"SR Biomarine Co., Ltd.",Thailand,Na Di,Samut Sakhon,"H7CX+83G, Na Di, Mueang Samut Sakhon District, Samut Sakhon 74000, Thailand",,,,,,
"Sucobma Co., Ltd.",Thailand,Tambon Nai Khlong Bang Pla Kot,Chang Wat Samut Prakan,"229/9 ซ.สุขสวัสดิ์78, ถ.สุขสวัสดิ์, ต.สำโรงใต้ อ.พระประแดง สมุทรปราการ, 10130 Tambon Nai Khlong Bang Pla Kot, Amphoe Phra Samut Chedi, Chang Wat Samut Prakan 10130, Thailand",,,,,,
Nivat Fishmeal Industry Company Limited,Thailand,Tambon Bang Nam Chuet,Chang Wat Samut Sakhon,"1 Thanon Ekkachai, Tambon Bang Nam Chuet, Amphoe Mueang Samut Sakhon, Chang Wat Samut Sakhon 74000, Thailand",,,,,,
"Sermsin Fish Product Co., Ltd",Thailand,,Krung Thep Maha Nakhon,"120, 122 Soi Charoen Krung 58, Yannawa, Khet Sathon, Krung Thep Maha Nakhon 10120, Thailand",,,,,,
"Chareon Sin Fish Meal Co., Ltd.",Thailand,,,,https://ejfoundation.org/resources/downloads/EJF-Thailand-Seafood-Slaves-low-res.pdf,,,,,
"Betagro Feed Mill Co., Ltd.",Thailand,,Chang Wat Udon Thani,"217/5-6 บ้านหนองตาเหล็ก อุดร-เลย, ตำบลหมากแข้ง อำเภอเมืองอุดรธานี อุดรธานี, 41000 Tambon Mak Khaeng, Amphoe Mueang Udon Thani, Chang Wat Udon Thani 41000, Thailand",,,,,,
"TSDP (Thailand) Co., Ltd.",Thailand,Tambon Wang Chula,Chang Wat Phra Nakhon Si Ayutthaya,"129/21-22 Tambon Wang Chula, Amphoe Wang Noi, Chang Wat Phra Nakhon Si Ayutthaya 13170, Thailand",,,,,,
"S.K.S. Agro-Marine Co., Ltd.",Thailand,Bangkok,จังหวัด กรุงเทพมหานคร,"MFRX+3RV, Bangkok, Bang Kho Laem, จังหวัด กรุงเทพมหานคร 10120, Thailand",,,,,,
Sahamitr Fish Meal Company Limited,Thailand,,,,https://www.marin-trust.com/sites/marintrust/files/2022-06/Approval%20letter%20from%20participants.pdf,,,,,
"Wiboon Agri Supply Co., Ltd.",Thailand,,Krung Thep Maha Nakhon,"Thái Lan, 79/163 Soi Nawamin 86, Khwaeng Ram Inthra, Khet Khan Na Yao, Krung Thep Maha Nakhon 10230, Thailand",,,,,,
"Sorasak Fishmeal Co., Ltd.",Thailand,Tambon Bang Phli Yai,Chang Wat Samut Prakan,"92 Soi E S, Tambon Bang Phli Yai, Amphoe Bang Phli, Chang Wat Samut Prakan 10540, Thailand",,,,,,
"Sang Thong Saha Farm (STF) Co., Ltd.",Thailand,Tambon Mae Sun,Chang Wat Chiang Mai,"1/1 หมู่ 16 Tambon Mae Sun, Amphoe Fang, Chang Wat Chiang Mai 50110, Thailand",,,,,,
"Rakyom 2525 Co., Ltd.",Thailand,,,,https://www.dataforthai.com/company/0605558000648/,,,,,
INVE (THAILAND) LTD.,Thailand,Tambon Nong Lum,Chang Wat Phichit,"79/1 ม.1ถ.นครสวรรค์-พิษณุโลก, ต.หนองหลุม อ.วชิรบารมี จ.พิจิตร , 66220 Tambon Nong Lum, Amphoe Wachirabarami, Chang Wat Phichit 66220, Thailand",,,,,,
"T R F Fishmeal Co., Ltd.",Thailand,Tambon Na Khok,Chang Wat Samut Sakhon,"99 88 หมู่2 Tambon Na Khok, Amphoe Mueang Samut Sakhon, Chang Wat Samut Sakhon 74000, Thailand",,,,,,
"Pacific Marine Food Products Co.,Ltd",Thailand,Tambon Khok Kham,Chang Wat Samut Sakhon,"75/12 ทางหลวงแผ่นดินหมายเลข. 3242 - ถนนวัดโสภณาราม Tambon Khok Kham, Amphoe Mueang Samut Sakhon, Chang Wat Samut Sakhon 74000, Thailand",,,,,,
"Advance Agro and Technology Part., Ltd.",Thailand,,Krung Thep Maha Nakhon,"Soi Ramkhamhaeng 8, Khwaeng Hua Mak, Khet Bang Kapi, Krung Thep Maha Nakhon 10240, Thailand",https://ojs.lib.buu.ac.th/index.php/commerce/article/view/9322/8356,,,,,
"Anusorn Aquatic Industry Co., Ltd.",Thailand,ตำบล ท่าทราย,สมุทรสาคร,"59/7, ตำบล ท่าทราย อำเภอเมืองสมุทรสาคร สมุทรสาคร 74000, Thailand",https://www4.fisheries.go.th/local/file_document/20230301121718_1_file.csv,,,,,
"Aquatic Deal Co., Ltd.",Thailand,,Chang Wat Nakhon Pathom,"74 Thanon Rajvithee, Tambon Phra Prathom Chedi, Amphoe Mueang Nakhon Pathom, Chang Wat Nakhon Pathom 73000, Thailand",https://ultherapy-asia.com/certified-treatment-providers/,,,,,
"Bangsaphan Union Fishmeal Co., Ltd. / Company Limited Fishmeal Bridges",Thailand,Tambon Mae Ram Phueng,Chang Wat Prachuap Khiri Khan,"900 ปข.4056 Tambon Mae Ram Phueng, Amphoe Bang Saphan, Chang Wat Prachuap Khiri Khan 77140, Thailand",,,,,,
United Fishing Enterprises Pty Limited,Namibia,,,,https://interfishmarket.com/en/company.aspx?id=92868,,,,,
"Minh Tâm Fishmeal Co.,Ltd",Vietnam,Rạch Giá,Kien Giang,"X49C+4HM, Phường An Bình, Rach Gia, Kien Giang, Vietnam",,,,,,
Minh Tam Fish Meal Processing Company Limited,Vietnam,,Bạc Liêu,"683X+G9G, Khúc Tréo B, Giá Rai, Bạc Liêu 960000, Vietnam",,,,,,
"Tac Cau Fish Meal Processing Area
",Vietnam,Thành phố Hội An,Quảng Nam,"V8GH+48F, Nguyễn Phúc Chu, Phường Minh An, Hội An, Quảng Nam, Vietnam",,,,,,
Tan Tien Fish Meal Processing Factory,Vietnam,Vũng Tàu,Bà Rịa - Vũng Tàu,"Ấp Láng Cát, Xã Tân Hải, Huyện Tân Thành, F546+576, Phước Cơ, Vũng Tàu, Bà Rịa - Vũng Tàu, Vietnam",,,,,,
"Thien Phat Manufacturing and Trading Co., Ltd",Vietnam,,Hồ Chí Minh,"216, 56 Đ. Lê Văn Quới, Bình Trị Đông A, Bình Tân, Hồ Chí Minh 700000, Vietnam",https://phaata.com/en/zip-code/ho-chi-minh-zip-code-1309.html,,,,,
Yong Liang Fishmeal Sdn Bhd,Malaysia,Sekinchan,Selangor,"Taman Sekinchan Jaya, 45400 Sekinchan, Selangor, Malaysia",https://www.intellect-worldwide.com/wp-content/uploads/sites/123/2021/09/15-July-2021-Batch-27-2021.pdf,,,,,
Hup Lean Alk Feedmeal Sdn. Bhd.,Malaysia,Hutan Melintang,Perak,"Lot 872, Jalan Tepi Sungai, 36400 Hutan Melintang, Perak, Malaysia",https://www.emis.com/php/company-profile/MY/Hup_Lean_Aik_Feedmeal_Sdn_Bhd_en_4216285.html,,,,,
Amazing Desire Sdn Bhd.,Malaysia,,,,https://www.emis.com/php/company-profile/MY/Amazing_Desire_Sdn_Bhd_en_16436861.html,,,,,
Sin Hong Heng Fishmeal Sdn. Bhd.,Malaysia,Johor Bahru,Johor Darul Ta'zim,"Kawasan Perindustrian, 6 & 8, Jalan Sri Purnama 2, Kangkar Tebrau, 81100 Johor Bahru, Johor Darul Ta'zim, Malaysia",https://trungtamwto.vn/file/20474/danh-sach-doanh-nghiep-xuat-nhap-khau-hang-thuc-pham-do-uong-malaysia.pdf,,,,,
Guan Hoe Huat Fishmeal Co. Sdn. Bhd.,Malaysia,Kuala Penyu,Sabah,"Km 6, Jalan Menumbok, Kampung Paringan, Sabah, 89740 Kuala Penyu, Sabah, Malaysia",https://my506315-guan-hoe-huat-fishmeal-co-sdn-bhd.contact.page/,,,,,
Yew Seng Fishmeal Sdn. Bhd.,Malaysia,Batu Caves,Selangor,"2, Jln BCU 3, Kawasan Perindustrian Batu Caves Utara, 68100 Batu Caves, Selangor, Malaysia",https://ipjournal.myipo.gov.my/ipjournal/index.cfm?pg=pnmb/outbox/download4&bid=1181&div=tm&f=TM%209_2024_PNMB_68032024.pdf,,,,,
Lucky Ocean Enterprise Sdn. Bhd.,Malaysia,Kunak,,"Nt 113014430 & 11400886, Jalan Getah Pangi, Sabah, 91209 Kunak, Malaysia",https://malaysia.contact.page/categories/my110227-fishing-equipment/listings?page=4,,,,,
"Densamut Fishmeal Factory Part., Ltd.",Thailand,ตำบลบางพลีใหญ่,Chang Wat Samut Prakan,"225 หมู่12 ถนนเทพารักษ์ กม.13 ตำบลบางพลีใหญ่ Amphoe Bang Phli, Chang Wat Samut Prakan 10540, Thailand",,,,,,
"K-Pro (Thailand) Co., Ltd.",Thailand,,Krung Thep Maha Nakhon,"Soi Chaem Chan, Khwaeng Khlong Tan Nuea, Watthana, Krung Thep Maha Nakhon 10110, Thailand",https://www.thaichamber.org/public/upload/images/page/files/Approved%20Contractor%20List%20%28As%206%20May%202024%29%281%29.pdf,,,,,
"Khantichai Fishmeal Co.,Ltd.",Thailand,,Krung Thep Maha Nakhon,"1716 Soi Lat Phrao 58, Khwaeng Wang Thonglang, Khet Wang Thonglang, Krung Thep Maha Nakhon 10310, Thailand",,,,,,
"Khuraburi Fishmeal Industry Co., Ltd.",Thailand,,,,https://unesdoc.unesco.org/ark:/48223/pf0000155745,,,,,
"N.K. Fishmeal Co., Ltd.",Thailand,,Krung Thep Maha Nakhon,"3627, 7 Thanon Charoen Rat, Khwaeng Bang Khlo, Khet Bang Kho Laem, Krung Thep Maha Nakhon 10120, Thailand",,,,,,
"Nang Yon Fishmeal Industry Co., Ltd.",Thailand,Tambon Mapyangphon,Chang Wat Rayong,"หมู่ที่ 4 นิคมอุตสาหกรรมอมตะ ซิตี้ 7/120 ถนนสามสามหนึ่ง Tambon Mapyangphon, Amphoe Pluak Daeng, Chang Wat Rayong 21140, Thailand",,,,,,
"Our Leader Office Co., Ltd.",Thailand,Muang Pattaya,Chang Wat Chon Buri,"39 134 Boonsampan, Muang Pattaya, Amphoe Bang Lamung, Chang Wat Chon Buri 20150, Thailand",,,,,,
"P.S.P. Fishmeal Co., Ltd.",Thailand,,Krung Thep Maha Nakhon,"1716 Soi Lat Phrao 58, Khwaeng Wang Thonglang, Khet Wang Thonglang, Krung Thep Maha Nakhon 10310, Thailand",,,,,,
Binsedoon For Fish and Marine Co.,Yemen,,,,https://www.sea-ex.com/countryinfo/yemen.htm,,,,,
Al-Muhajer For Trading and Seafood Industry,Yemen,كابوتا,محافظة عدن,كابوتا، Yemen,,,,,,
Albahsani Bin Sadoon,Yemen,Seiyun,Hadhramaut Governorate,"WQMR+73M, Seiyun, Yemen",,,,,,
The Arab Company for Canning and Packaging,Yemen,صنعاء‎,أمانة العاصمة,"47, الخط الدائري، صنعاء‎، Yemen",,,,,,
"Oceans Fish Factory, Ltd.",Yemen,Ash Shihr,Hadhramaut Governorate,"QJ64+PWF, Ash Shihr, Yemen",,,,,,
Botin Globe Company,Yemen,,,,https://www.worldbank.org/content/dam/meetings/external/annualmeeting/Participant-List.pdf,,,,,
King Future Factory,Yemen,Al Jazirah,Al Hudaydah Governorate,":Yemen Company for Sugar Refinery. Hodeida-Republic of Yeme، Al Jazirah, Yemen",https://haubooks.org/wp-content/uploads/2021/12/Fassin-Fourcade-PANDEMIC-EXPOSURES-2021.pdf,,,,,
Bin Saldoun Grinding Factory,Yemen,,,,https://apeda.gov.in/apedawebsite/Announcements/Trade-Info-on-APEDA-Scheduled-Product.pdf,,,,,
Gulf Protein Factory,Yemen,كابوتا,محافظة عدن,كابوتا، Yemen,https://moit-ye.com/wp-content/uploads/2022/08/32.pdf,,,,,
Arabian Peninsula Company for Marine Products,Yemen,Saqr,Al Mahrah Governorate,"FRMV+QJ, Saqr, Yemen",,,,,,
Al-Nawras Company,Yemen,Saqr,Al Mahrah Governorate,"FRMV+QJ, Saqr, Yemen",,,,,,
Tuna Factory for Fish Canning and Packaging,Yemen,الشحر،,محافظة حضرموت,الشحر،، Yemen,https://www.tiktok.com/discover/%D9%85%D9%86%D8%AA%D8%AC%D8%B9-%D8%A7%D9%84%D8%B1%D9%8A%D8%A7%D9%86-%D8%A7%D9%84%D9%85%D9%83%D9%84%D8%A7,,,,,
Saba’a Factory for Fish Products,Yemen,Sana'a,Sana'a Governorate,"Sana'a, Yemen",http://www.yemen.jp/whatsnew2010.php,,,,,
Al-Ghoweizi Fish Canning Factory,Yemen,Burum,Hadhramaut Governorate,"9XVW+X6C, Burum, Yemen",,,,,,
Chilan Pishbin Fish Meal Production Factory,Iran,,,,https://citec.repec.org/s/2019/eeerenene.html,,,,,
Fish Lantern / Lanternfish of Qeshm / Fanous Mahiyan Qeshm / فانوس ماهیان,Iran,Qeshm,Hormozgan Province,"Hormozgan Province, Qeshm, sayadan site, X73J+6J5, Iran",,,,,,
Golden Clean Industry Qeshm Fish Meal Factory / Zarin Sanat Pak Qeshm Fish Powder Factory / کارخانه پودر ماهی زرین صنعت پاک قشم,Iran,,,,http://engineerassistant.ir/Balootdb99/Exhibition-95-11.xlsx,,,,,
Khazar Kilka Processing Company / شرکت کیلکا فرآور خزر,Iran,Rasht,,"Rasht, Rasht 6 telecommunication center, 1st floor, unit 1, Imam Khomeini Blvd، پلاک in front of, Water and electricity, Iran",,,,,,
"Honoroad Vietnam Aquatic Feed Ingredient Processing Co., Ltd.",Vietnam,,Cần Thơ,"Lô 2.19A5, KCN Trà Nóc 2, Phước Thới, Ô Môn, Cần Thơ, Vietnam",https://thuvienphapluat.vn/ma-so-thue/cong-ty-trach-nhiem-huu-han-che-bien-phu-pham-thuy-san-honoroad-viet-nam-mst-1800654959.html,,,,,
پودر زرین / Golden Powder / Zarrin Powder,Iran,,,,https://pegahmilk.com/en/,,,,,
Sayyad Qeshm Fish Meal,Iran,Qeshm,Hormozgan Province,"X6FP+FGJ, Qeshm, Hormozgan Province, Iran",,,,,,
Roshd Dorna,Iran,,,,https://home.treasury.gov/news/press-releases/jy2388,,,,,
Baran Rize Silk Road Company / Sherkat Baran Rize Rah Abrisham,Iran,,,,https://www.icheckmovies.com/lists/available+online+with+english+subtitles+Iran/melvelet/,,,,,
"International Fish Meal Company Mato Fish, Shahre Aftab, and Mahakood Fish Fertilizer / Mato Fish International Fish Meal Company, Shahre Aftab, and Mahakood Fish Fertilizer / Aftab Shahr Mahkod Fish Fertilizer International Co., Ltd / Mato Qeshm Fish Meal",Iran,Jalabi,Hormozgan Province,"8MX3+52X, Jalabi, Hormozgan Province, Iran",,,,,,
Golden Seed Chabahar Fish Meal Company,Iran,Chah Bahar,Sistan and Baluchestan Province,"Sistan and Baluchestan Province, Chah Bahar, خیابان کوهستان، 8JCM+78P, Iran",,,,,,
"Saba Majd Qeshm Fish Meal Cooperative Company / Qeshm Cooperative Fish Meal Company, Saba Majd",Iran,Qeshm,Hormozgan Province,"Hormozgan Province, Qeshm, خیابان دانشمند،, X74C+FM9, Iran",,,,,,
Aras Marine Products Co,Iran,,,,https://crsreports.congress.gov/product/pdf/RS/RS20871/282,,,,,
Kilka Powder Sahar Company / Sherkat Kilka Poodar Sahar,Iran,Garmdareh,Alborz Province,"Q345+PP8 Garmdareh, Alborz Province, Iran",,,,,,
Gulshan Asur Company,Iran,,,,https://www.symb-ol.org/app/download/23613874/SY+Songbook+-complete.pdf,,,,,
Motavakesham Company,Iran,Tehran,,"Tehran, Unit 1،.172, Hoveyzeh Street, Sabounch Street, Beheshti martyr, Iran",,,,,,
Qeshm Fish Processing /Faravari Mahi Qeshm / Sherkat Faravari Mahi Qeshm,Iran,Ramchah,Hormozgan Province,"Hormozgan Province, Ramchah, Unnamed Road, W49W+V44, Iran",,,,,,
Ghaem Seaside Powder / Qam Sahal Powder,Iran,,,,,,,,,
Tiyab Fish Meal Factory,Iran,Jalabi,Hormozgan Province,"8MX3+52X, Jalabi, Hormozgan Province, Iran",,,,,,
Yazdan Darya Bostaneh Fish Meal Factory / Karkhaneh Poodar Mahi Yazdan Darya Bostaneh,Iran,Kish,Hormozgan Province,"Hormozgan Province, Kish, goldis, Iran Blv, HX5R+FCW, Iran",,,,,,
"Pattani Industry Fishery Co., Ltd.",Thailand,Chanong,Songkhla,"2MJ6+3QG, Chanong, Chana District, Songkhla 90130, Thailand",,,,,,
"Pornjeerasak Co., Ltd.",Thailand,,Krung Thep Maha Nakhon,"3597, 267 soi Chalaem Nimit, Khwaeng Bang Phong Phang, Khet Yannawa, Krung Thep Maha Nakhon 10120, Thailand",,,,,,
"Rung Ruang Fish Works Co.,Ltd.",Thailand,Tambon Bang Duan,Chang Wat Samut Prakan,"138/71 ม.8 ซ.ธรรมเจริญ ถ. ทางรถไฟสายเก่าปากน้ำ Tambon Bang Duan, Amphoe Mueang Samut Prakan, Chang Wat Samut Prakan 10270, Thailand",,,,,,
"Sahacharoenkit Industry (1978) Part., Ltd.",Thailand,Tambon Bang Phli Yai,Chang Wat Samut Prakan,"9/15 หมู่20 ล็อค31ก Thanon Tamru - Bang Phli, Tambon Bang Phli Yai, Amphoe Bang Phli, Chang Wat Samut Prakan 10540, Thailand",,,,,,
"Sakol Fishmeal Co., Ltd.",Thailand,,Krung Thep Maha Nakhon,"819 ซอย ลาซาล 24 Khwaeng Bang Na, Khet Bang Na, Krung Thep Maha Nakhon 10260, Thailand",,,,,,
"Samutprakarn Fish Meal Co., Ltd.",Thailand,ตำบล แพรกษาใหม่,สมุทรปราการ,"109/ 1 moo 21 Soi chongsiri, Bangpleeyai, Bangplee, Tamru Road, ตำบล แพรกษาใหม่ อำเภอเมืองสมุทรปราการ สมุทรปราการ 10540, Thailand",,,,,,
"Siam Eastern Industry Co., Ltd.",Thailand,Tambon Rai Khing,Chang Wat Nakhon Pathom,"42/220 Moo 5 Soi Moobansrithien Petchkasem Rd., Km.29 Tambon Rai Khing, Sampran Chang Wat Nakhon Pathom 73210, Thailand",,,,,,
"Thai Pattana Feed Co., Ltd.",Thailand,Tambon Bang Kachao,Chang Wat Samut Sakhon,"39 บางกระเจ้า 224 หมู่2 Tambon Bang Kachao, Amphoe Mueang Samut Sakhon, Chang Wat Samut Sakhon 74000, Thailand",https://www.dhipaya.co.th/uploads/ir_report/35/desktop/thai/22fc2c32d03babf6dc40dffcab35b109.pdf,,,,,
"Thungca Fish Meal Part., Ltd.",Thailand,ตำบลบางพลีใหญ่,Chang Wat Samut Prakan,"225 หมู่12 ถนนเทพารักษ์ กม.13 ตำบลบางพลีใหญ่ Amphoe Bang Phli, Chang Wat Samut Prakan 10540, Thailand",,,,,,
"United Marine Products Co., Ltd.",Thailand,,Krung Thep Maha Nakhon,"88 47-48 Nang Linchi Rd, Khwaeng Chong Nonsi, Khet Yan Nawa, Krung Thep Maha Nakhon 10120, Thailand",https://bbs.naccscenter.com/naccs/dfw/web/data/code/fains/fai_kyotu-bu_seizosha-a_ta_th.xls,,,,,
"Woraphan Ice and Fishmeal Part., Ltd",Thailand,,Krung Thep Maha Nakhon,"367 On Nut Rd, Khwaeng Prawet, Khet Prawet, Krung Thep Maha Nakhon 10250, Thailand",,,,,,
"Weng Cheaglee Fish Powder Industry Part., Ltd.",Thailand,,ระยอง,"25, Areenas Rd.,, Pak Nam, Muang Rayong, Rayong, 21000, ตำบล ปากน้ำ อำเภอเมืองระยอง ระยอง 21000, Thailand",,,,,,
Majestic Seafood Corporation,Papua New Guinea,Lae,Morobe Province,"822F+RF5, Lae Morobe Province, Papua New Guinea",https://www.top-rated.online/cities/Lae/place/p/9796062/Majestic+Seafood+Corporation+Limited,,,,,
"Hong DucVuong Viet Nam Co., Ltd",Vietnam,,Hồ Chí Minh,"51 Đường số 5, Phường 5, Quận 8, Hồ Chí Minh, Vietnam",https://phaata.com/en/zip-code/ho-chi-minh-zip-code-1309.html,,,,,
Ngoc Dung Trading and Production Co. Ltd.,Vietnam,,Bắc Ninh,"6X4W+8PR, Thôn Yên Lãng, Yên Phong, Bắc Ninh, Vietnam",,,,,,
Shri Rozy Fish Meal and oil,India,Javar Village,Gujarat,"MH5C+M5, Javar Village, Gujarat 360579, India",,,,,,
Tirupati Fish Meal,India,Tirupati,Andhra Pradesh,"D no,22, 4-61/1A, Karakambadi Rd, opp. ganagaram function hall, Mangalam, Tirupati, Andhra Pradesh 517507, India",https://www.justdial.com/Tirupati/Water-Purifier-Dealers-Aquafresh/nct-10553612,,,,,
Janatha Ocean Products,India,Koodankulam,Tamil Nadu,"Weigh Bridge Campus, 7/191 Irukkanthurai Post, Kudankulam Village Radhapuram Taluk, Koodankulam, Tamil Nadu 627106, India",https://www.exportersindia.com/janatha-ocean-products/,,,,,
Mukka Sea Food Industries Pvt Ltd,India,Mangaluru,Karnataka,"Mukka Corporate House,1st Cross, Nandigudda Rd, Attavar, Mangaluru, Karnataka 575001, India",https://www.mukkaproteins.com/about-mukka-proteins.php,,,,,
